{
  "type": "FeatureCollection",
  "features": [
    {
      "type": "Feature",
      "geometry": {
        "type": "Point",
        "coordinates": [
          -112.86806,
          53.68236
        ]
      },
      "properties": {
        "StationName": "Elk Island",
        "ReadingDate": "2026-10-06T08:00:00+00:00",
        "forecast_valid_time_utc": "2026-10-06T11:00:00+00:00",
        "AQHI": 2.0,
        "AQHI_forecast_3h": 1.75150799751282,
        "forecast_spatial_weight": 0.5813,
        "met_forecast_time_utc": "2026-10-06T11:00:00+00:00",
        "missing_feature_count": 0
      }
    },
    {
      "type": "Feature",
      "geometry": {
        "type": "Point",
        "coordinates": [
          -117.5846086,
          53.3927365
        ]
      },
      "properties": {
        "StationName": "Hinton-Hillcrest",
        "ReadingDate": "2026-10-06T08:00:00+00:00",
        "forecast_valid_time_utc": "2026-10-06T11:00:00+00:00",
        "AQHI": 2.0,
        "AQHI_forecast_3h": 1.53749859333038,
        "forecast_spatial_weight": 0.5813,
        "met_forecast_time_utc": "2026-10-06T11:00:00+00:00",
        "missing_feature_count": 0
      }
    },
    {
      "type": "Feature",
      "geometry": {
        "type": "Point",
        "coordinates": [
          -113.105857,
          53.951834
        ]
      },
      "properties": {
        "StationName": "Redwater",
        "ReadingDate": "2026-10-06T08:00:00+00:00",
        "forecast_valid_time_utc": "2026-10-06T11:00:00+00:00",
        "AQHI": 2.0,
        "AQHI_forecast_3h": 1.7998526096344,
        "forecast_spatial_weight": 0.5813,
        "met_forecast_time_utc": "2026-10-06T11:00:00+00:00",
        "missing_feature_count": 0
      }
    },
    {
      "type": "Feature",
      "geometry": {
        "type": "Point",
        "coordinates": [
          -112.925851,
          53.805629
        ]
      },
      "properties": {
        "StationName": "Bruderheim",
        "ReadingDate": "2026-10-06T08:00:00+00:00",
        "forecast_valid_time_utc": "2026-10-06T11:00:00+00:00",
        "AQHI": 2.0,
        "AQHI_forecast_3h": 1.7816823720932,
        "forecast_spatial_weight": 0.5813,
        "met_forecast_time_utc": "2026-10-06T11:00:00+00:00",
        "missing_feature_count": 0
      }
    },
    {
      "type": "Feature",
      "geometry": {
        "type": "Point",
        "coordinates": [
          -112.642376,
          49.4621
        ]
      },
      "properties": {
        "StationName": "Raymond (Airpointer)",
        "ReadingDate": "2026-10-06T08:00:00+00:00",
        "forecast_valid_time_utc": "2026-10-06T11:00:00+00:00",
        "AQHI": 2.0,
        "AQHI_forecast_3h": 2.19233918190002,
        "forecast_spatial_weight": 0.5813,
        "met_forecast_time_utc": "2026-10-06T11:00:00+00:00",
        "missing_feature_count": 0
      }
    },
    {
      "type": "Feature",
      "geometry": {
        "type": "Point",
        "coordinates": [
          -117.604994,
          56.18657
        ]
      },
      "properties": {
        "StationName": "Grimshaw",
        "ReadingDate": "2026-10-06T09:00:00+00:00",
        "forecast_valid_time_utc": "2026-10-06T12:00:00+00:00",
        "AQHI": 2.0,
        "AQHI_forecast_3h": 1.86448109149933,
        "forecast_spatial_weight": 0.748,
        "met_forecast_time_utc": "2026-10-06T12:00:00+00:00",
        "missing_feature_count": 0
      }
    },
    {
      "type": "Feature",
      "geometry": {
        "type": "Point",
        "coordinates": [
          -111.64262,
          57.14908
        ]
      },
      "properties": {
        "StationName": "Fort McKay South",
        "ReadingDate": "2026-10-06T09:00:00+00:00",
        "forecast_valid_time_utc": "2026-10-06T12:00:00+00:00",
        "AQHI": 2.0,
        "AQHI_forecast_3h": 2.01331353187561,
        "forecast_spatial_weight": 0.6882,
        "met_forecast_time_utc": "2026-10-06T12:00:00+00:00",
        "missing_feature_count": 0
      }
    },
    {
      "type": "Feature",
      "geometry": {
        "type": "Point",
        "coordinates": [
          -116.80948,
          54.395492
        ]
      },
      "properties": {
        "StationName": "Fox Creek",
        "ReadingDate": "2026-10-06T09:00:00+00:00",
        "forecast_valid_time_utc": "2026-10-06T12:00:00+00:00",
        "AQHI": 1.0,
        "AQHI_forecast_3h": 1.47217679023743,
        "forecast_spatial_weight": 0.748,
        "met_forecast_time_utc": "2026-10-06T12:00:00+00:00",
        "missing_feature_count": 0
      }
    },
    {
      "type": "Feature",
      "geometry": {
        "type": "Point",
        "coordinates": [
          -111.1764,
          58.7084
        ]
      },
      "properties": {
        "StationName": "Fort Chipewyan",
        "ReadingDate": "2026-10-06T09:00:00+00:00",
        "forecast_valid_time_utc": "2026-10-06T12:00:00+00:00",
        "AQHI": 1.0,
        "AQHI_forecast_3h": 1.36818313598633,
        "forecast_spatial_weight": 0.6882,
        "met_forecast_time_utc": "2026-10-06T12:00:00+00:00",
        "missing_feature_count": 0
      }
    },
    {
      "type": "Feature",
      "geometry": {
        "type": "Point",
        "coordinates": [
          -113.48596,
          53.54948
        ]
      },
      "properties": {
        "StationName": "Edmonton McCauley",
        "ReadingDate": "2026-10-06T09:00:00+00:00",
        "forecast_valid_time_utc": "2026-10-06T12:00:00+00:00",
        "AQHI": 3.0,
        "AQHI_forecast_3h": 3.45116496086121,
        "forecast_spatial_weight": 0.748,
        "met_forecast_time_utc": "2026-10-06T12:00:00+00:00",
        "missing_feature_count": 0
      }
    },
    {
      "type": "Feature",
      "geometry": {
        "type": "Point",
        "coordinates": [
          -118.8075,
          55.176667
        ]
      },
      "properties": {
        "StationName": "Grande Prairie - Henry Pirker",
        "ReadingDate": "2026-10-06T09:00:00+00:00",
        "forecast_valid_time_utc": "2026-10-06T12:00:00+00:00",
        "AQHI": 2.0,
        "AQHI_forecast_3h": 1.8087010383606,
        "forecast_spatial_weight": 0.748,
        "met_forecast_time_utc": "2026-10-06T12:00:00+00:00",
        "missing_feature_count": 0
      }
    },
    {
      "type": "Feature",
      "geometry": {
        "type": "Point",
        "coordinates": [
          -116.395877,
          53.593824
        ]
      },
      "properties": {
        "StationName": "Edson",
        "ReadingDate": "2026-10-06T09:00:00+00:00",
        "forecast_valid_time_utc": "2026-10-06T12:00:00+00:00",
        "AQHI": 2.0,
        "AQHI_forecast_3h": 1.79461944103241,
        "forecast_spatial_weight": 0.748,
        "met_forecast_time_utc": "2026-10-06T12:00:00+00:00",
        "missing_feature_count": 0
      }
    },
    {
      "type": "Feature",
      "geometry": {
        "type": "Point",
        "coordinates": [
          -113.327174,
          53.827241
        ]
      },
      "properties": {
        "StationName": "Gibbons",
        "ReadingDate": "2026-10-06T09:00:00+00:00",
        "forecast_valid_time_utc": "2026-10-06T12:00:00+00:00",
        "AQHI": 2.0,
        "AQHI_forecast_3h": 1.80850660800934,
        "forecast_spatial_weight": 0.748,
        "met_forecast_time_utc": "2026-10-06T12:00:00+00:00",
        "missing_feature_count": 0
      }
    },
    {
      "type": "Feature",
      "geometry": {
        "type": "Point",
        "coordinates": [
          -111.47637,
          56.75135
        ]
      },
      "properties": {
        "StationName": "Fort McMurray Patricia McInnes",
        "ReadingDate": "2026-10-06T09:00:00+00:00",
        "forecast_valid_time_utc": "2026-10-06T12:00:00+00:00",
        "AQHI": 1.0,
        "AQHI_forecast_3h": 1.47905457019806,
        "forecast_spatial_weight": 0.748,
        "met_forecast_time_utc": "2026-10-06T12:00:00+00:00",
        "missing_feature_count": 0
      }
    },
    {
      "type": "Feature",
      "geometry": {
        "type": "Point",
        "coordinates": [
          -114.2015721,
          53.30156091
        ]
      },
      "properties": {
        "StationName": "Genesee",
        "ReadingDate": "2026-10-06T09:00:00+00:00",
        "forecast_valid_time_utc": "2026-10-06T12:00:00+00:00",
        "AQHI": 2.0,
        "AQHI_forecast_3h": 1.71951413154602,
        "forecast_spatial_weight": 0.748,
        "met_forecast_time_utc": "2026-10-06T12:00:00+00:00",
        "missing_feature_count": 0
      }
    },
    {
      "type": "Feature",
      "geometry": {
        "type": "Point",
        "coordinates": [
          -113.760702,
          53.498049
        ]
      },
      "properties": {
        "StationName": "Enoch",
        "ReadingDate": "2026-10-06T09:00:00+00:00",
        "forecast_valid_time_utc": "2026-10-06T12:00:00+00:00",
        "AQHI": 2.0,
        "AQHI_forecast_3h": 1.67507815361023,
        "forecast_spatial_weight": 0.748,
        "met_forecast_time_utc": "2026-10-06T12:00:00+00:00",
        "missing_feature_count": 0
      }
    },
    {
      "type": "Feature",
      "geometry": {
        "type": "Point",
        "coordinates": [
          -111.39047,
          56.73344
        ]
      },
      "properties": {
        "StationName": "Fort McMurray Athabasca Valley",
        "ReadingDate": "2026-10-06T09:00:00+00:00",
        "forecast_valid_time_utc": "2026-10-06T12:00:00+00:00",
        "AQHI": 1.0,
        "AQHI_forecast_3h": 1.44110190868378,
        "forecast_spatial_weight": 0.6882,
        "met_forecast_time_utc": "2026-10-06T12:00:00+00:00",
        "missing_feature_count": 0
      }
    },
    {
      "type": "Feature",
      "geometry": {
        "type": "Point",
        "coordinates": [
          -119.086667,
          55.752778
        ]
      },
      "properties": {
        "StationName": "Happy Valley",
        "ReadingDate": "2026-10-06T09:00:00+00:00",
        "forecast_valid_time_utc": "2026-10-06T12:00:00+00:00",
        "AQHI": 2.0,
        "AQHI_forecast_3h": 1.88307130336761,
        "forecast_spatial_weight": 0.748,
        "met_forecast_time_utc": "2026-10-06T12:00:00+00:00",
        "missing_feature_count": 0
      }
    },
    {
      "type": "Feature",
      "geometry": {
        "type": "Point",
        "coordinates": [
          -111.03722,
          56.44928
        ]
      },
      "properties": {
        "StationName": "Anzac",
        "ReadingDate": "2026-10-06T09:00:00+00:00",
        "forecast_valid_time_utc": "2026-10-06T12:00:00+00:00",
        "AQHI": 2.0,
        "AQHI_forecast_3h": 1.82927119731903,
        "forecast_spatial_weight": 0.748,
        "met_forecast_time_utc": "2026-10-06T12:00:00+00:00",
        "missing_feature_count": 0
      }
    },
    {
      "type": "Feature",
      "geometry": {
        "type": "Point",
        "coordinates": [
          -117.0913947,
          53.1325994
        ]
      },
      "properties": {
        "StationName": "Steeper",
        "ReadingDate": "2026-10-06T09:00:00+00:00",
        "forecast_valid_time_utc": "2026-10-06T12:00:00+00:00",
        "AQHI": 2.0,
        "AQHI_forecast_3h": 1.96181917190552,
        "forecast_spatial_weight": 0.748,
        "met_forecast_time_utc": "2026-10-06T12:00:00+00:00",
        "missing_feature_count": 0
      }
    },
    {
      "type": "Feature",
      "geometry": {
        "type": "Point",
        "coordinates": [
          -111.503304,
          54.215961
        ]
      },
      "properties": {
        "StationName": "St. Lina",
        "ReadingDate": "2026-10-06T09:00:00+00:00",
        "forecast_valid_time_utc": "2026-10-06T12:00:00+00:00",
        "AQHI": 2.0,
        "AQHI_forecast_3h": 1.90764212608337,
        "forecast_spatial_weight": 0.748,
        "met_forecast_time_utc": "2026-10-06T12:00:00+00:00",
        "missing_feature_count": 0
      }
    },
    {
      "type": "Feature",
      "geometry": {
        "type": "Point",
        "coordinates": [
          -113.1444,
          53.5545
        ]
      },
      "properties": {
        "StationName": "Ardrossan",
        "ReadingDate": "2026-10-06T09:00:00+00:00",
        "forecast_valid_time_utc": "2026-10-06T12:00:00+00:00",
        "AQHI": 2.0,
        "AQHI_forecast_3h": 2.12029695510864,
        "forecast_spatial_weight": 0.6283,
        "met_forecast_time_utc": "2026-10-06T12:00:00+00:00",
        "missing_feature_count": 0
      }
    },
    {
      "type": "Feature",
      "geometry": {
        "type": "Point",
        "coordinates": [
          -113.611905,
          53.626969
        ]
      },
      "properties": {
        "StationName": "St. Albert",
        "ReadingDate": "2026-10-06T09:00:00+00:00",
        "forecast_valid_time_utc": "2026-10-06T12:00:00+00:00",
        "AQHI": 2.0,
        "AQHI_forecast_3h": 1.86207556724548,
        "forecast_spatial_weight": 0.748,
        "met_forecast_time_utc": "2026-10-06T12:00:00+00:00",
        "missing_feature_count": 0
      }
    },
    {
      "type": "Feature",
      "geometry": {
        "type": "Point",
        "coordinates": [
          -113.32098,
          53.53209
        ]
      },
      "properties": {
        "StationName": "Sherwood Park",
        "ReadingDate": "2026-10-06T09:00:00+00:00",
        "forecast_valid_time_utc": "2026-10-06T12:00:00+00:00",
        "AQHI": 2.0,
        "AQHI_forecast_3h": 2.59907817840576,
        "forecast_spatial_weight": 0.6882,
        "met_forecast_time_utc": "2026-10-06T12:00:00+00:00",
        "missing_feature_count": 0
      }
    },
    {
      "type": "Feature",
      "geometry": {
        "type": "Point",
        "coordinates": [
          -111.863622,
          50.558872
        ]
      },
      "properties": {
        "StationName": "Brooks Meadowplace",
        "ReadingDate": "2026-10-06T09:00:00+00:00",
        "forecast_valid_time_utc": "2026-10-06T12:00:00+00:00",
        "AQHI": 2.0,
        "AQHI_forecast_3h": 1.84082818031311,
        "forecast_spatial_weight": 0.748,
        "met_forecast_time_utc": "2026-10-06T12:00:00+00:00",
        "missing_feature_count": 0
      }
    },
    {
      "type": "Feature",
      "geometry": {
        "type": "Point",
        "coordinates": [
          -113.79354,
          52.298677
        ]
      },
      "properties": {
        "StationName": "Red Deer - Riverside",
        "ReadingDate": "2026-10-06T09:00:00+00:00",
        "forecast_valid_time_utc": "2026-10-06T12:00:00+00:00",
        "AQHI": 2.0,
        "AQHI_forecast_3h": 1.88776159286499,
        "forecast_spatial_weight": 0.6283,
        "met_forecast_time_utc": "2026-10-06T12:00:00+00:00",
        "missing_feature_count": 0
      }
    },
    {
      "type": "Feature",
      "geometry": {
        "type": "Point",
        "coordinates": [
          -111.17269,
          55.62141
        ]
      },
      "properties": {
        "StationName": "Stony Mountain",
        "ReadingDate": "2026-10-06T09:00:00+00:00",
        "forecast_valid_time_utc": "2026-10-06T12:00:00+00:00",
        "AQHI": 2.0,
        "AQHI_forecast_3h": 1.83499801158905,
        "forecast_spatial_weight": 0.6882,
        "met_forecast_time_utc": "2026-10-06T12:00:00+00:00",
        "missing_feature_count": 0
      }
    },
    {
      "type": "Feature",
      "geometry": {
        "type": "Point",
        "coordinates": [
          -114.008836,
          51.030789
        ]
      },
      "properties": {
        "StationName": "Calgary Central Inglewood",
        "ReadingDate": "2026-10-06T09:00:00+00:00",
        "forecast_valid_time_utc": "2026-10-06T12:00:00+00:00",
        "AQHI": 2.0,
        "AQHI_forecast_3h": 2.31441760063171,
        "forecast_spatial_weight": 0.748,
        "met_forecast_time_utc": "2026-10-06T12:00:00+00:00",
        "missing_feature_count": 0
      }
    },
    {
      "type": "Feature",
      "geometry": {
        "type": "Point",
        "coordinates": [
          -110.681328,
          50.049003
        ]
      },
      "properties": {
        "StationName": "Medicine Hat - Crescent Heights",
        "ReadingDate": "2026-10-06T09:00:00+00:00",
        "forecast_valid_time_utc": "2026-10-06T12:00:00+00:00",
        "AQHI": 2.0,
        "AQHI_forecast_3h": 2.04499578475952,
        "forecast_spatial_weight": 0.748,
        "met_forecast_time_utc": "2026-10-06T12:00:00+00:00",
        "missing_feature_count": 0
      }
    },
    {
      "type": "Feature",
      "geometry": {
        "type": "Point",
        "coordinates": [
          -112.800586,
          49.716184
        ]
      },
      "properties": {
        "StationName": "Lethbridge",
        "ReadingDate": "2026-10-06T09:00:00+00:00",
        "forecast_valid_time_utc": "2026-10-06T12:00:00+00:00",
        "AQHI": 2.0,
        "AQHI_forecast_3h": 2.17611360549927,
        "forecast_spatial_weight": 0.748,
        "met_forecast_time_utc": "2026-10-06T12:00:00+00:00",
        "missing_feature_count": 0
      }
    },
    {
      "type": "Feature",
      "geometry": {
        "type": "Point",
        "coordinates": [
          -114.037677,
          51.268227
        ]
      },
      "properties": {
        "StationName": "Airdrie",
        "ReadingDate": "2026-10-06T09:00:00+00:00",
        "forecast_valid_time_utc": "2026-10-06T12:00:00+00:00",
        "AQHI": 2.0,
        "AQHI_forecast_3h": 1.73322677612305,
        "forecast_spatial_weight": 0.748,
        "met_forecast_time_utc": "2026-10-06T12:00:00+00:00",
        "missing_feature_count": 0
      }
    },
    {
      "type": "Feature",
      "geometry": {
        "type": "Point",
        "coordinates": [
          -110.749756,
          55.90329
        ]
      },
      "properties": {
        "StationName": "Janvier",
        "ReadingDate": "2026-10-06T09:00:00+00:00",
        "forecast_valid_time_utc": "2026-10-06T12:00:00+00:00",
        "AQHI": 2.0,
        "AQHI_forecast_3h": 1.72421443462372,
        "forecast_spatial_weight": 0.748,
        "met_forecast_time_utc": "2026-10-06T12:00:00+00:00",
        "missing_feature_count": 0
      }
    },
    {
      "type": "Feature",
      "geometry": {
        "type": "Point",
        "coordinates": [
          -110.452637,
          54.604935
        ]
      },
      "properties": {
        "StationName": "Tamarack",
        "ReadingDate": "2026-10-06T09:00:00+00:00",
        "forecast_valid_time_utc": "2026-10-06T12:00:00+00:00",
        "AQHI": 2.0,
        "AQHI_forecast_3h": 1.93336546421051,
        "forecast_spatial_weight": 0.748,
        "met_forecast_time_utc": "2026-10-06T12:00:00+00:00",
        "missing_feature_count": 0
      }
    },
    {
      "type": "Feature",
      "geometry": {
        "type": "Point",
        "coordinates": [
          -117.162094,
          58.521452
        ]
      },
      "properties": {
        "StationName": "High Level (Airpointer)",
        "ReadingDate": "2026-10-06T09:00:00+00:00",
        "forecast_valid_time_utc": "2026-10-06T12:00:00+00:00",
        "AQHI": 2.0,
        "AQHI_forecast_3h": 1.79572570323944,
        "forecast_spatial_weight": 0.6882,
        "met_forecast_time_utc": "2026-10-06T12:00:00+00:00",
        "missing_feature_count": 0
      }
    },
    {
      "type": "Feature",
      "geometry": {
        "type": "Point",
        "coordinates": [
          -117.5439834,
          53.42723159
        ]
      },
      "properties": {
        "StationName": "Hinton-Drinnan",
        "ReadingDate": "2026-10-06T09:00:00+00:00",
        "forecast_valid_time_utc": "2026-10-06T12:00:00+00:00",
        "AQHI": 1.0,
        "AQHI_forecast_3h": 1.17861437797546,
        "forecast_spatial_weight": 0.748,
        "met_forecast_time_utc": "2026-10-06T12:00:00+00:00",
        "missing_feature_count": 0
      }
    },
    {
      "type": "Feature",
      "geometry": {
        "type": "Point",
        "coordinates": [
          -114.9839737,
          53.22002357
        ]
      },
      "properties": {
        "StationName": "Drayton Valley",
        "ReadingDate": "2026-10-06T09:00:00+00:00",
        "forecast_valid_time_utc": "2026-10-06T12:00:00+00:00",
        "AQHI": 2.0,
        "AQHI_forecast_3h": 2.03977489471436,
        "forecast_spatial_weight": 0.748,
        "met_forecast_time_utc": "2026-10-06T12:00:00+00:00",
        "missing_feature_count": 0
      }
    },
    {
      "type": "Feature",
      "geometry": {
        "type": "Point",
        "coordinates": [
          -111.078872,
          55.63233
        ]
      },
      "properties": {
        "StationName": "Conklin Community",
        "ReadingDate": "2026-10-06T09:00:00+00:00",
        "forecast_valid_time_utc": "2026-10-06T12:00:00+00:00",
        "AQHI": 2.0,
        "AQHI_forecast_3h": 1.73940968513489,
        "forecast_spatial_weight": 0.6882,
        "met_forecast_time_utc": "2026-10-06T12:00:00+00:00",
        "missing_feature_count": 0
      }
    },
    {
      "type": "Feature",
      "geometry": {
        "type": "Point",
        "coordinates": [
          -112.778004,
          53.757334
        ]
      },
      "properties": {
        "StationName": "Lamont",
        "ReadingDate": "2026-10-06T09:00:00+00:00",
        "forecast_valid_time_utc": "2026-10-06T12:00:00+00:00",
        "AQHI": 2.0,
        "AQHI_forecast_3h": 2.16684746742249,
        "forecast_spatial_weight": 0.6882,
        "met_forecast_time_utc": "2026-10-06T12:00:00+00:00",
        "missing_feature_count": 0
      }
    },
    {
      "type": "Feature",
      "geometry": {
        "type": "Point",
        "coordinates": [
          -113.562705,
          53.564485
        ]
      },
      "properties": {
        "StationName": "Woodcroft",
        "ReadingDate": "2026-10-06T09:00:00+00:00",
        "forecast_valid_time_utc": "2026-10-06T12:00:00+00:00",
        "AQHI": 2.0,
        "AQHI_forecast_3h": 2.36037611961365,
        "forecast_spatial_weight": 0.748,
        "met_forecast_time_utc": "2026-10-06T12:00:00+00:00",
        "missing_feature_count": 0
      }
    },
    {
      "type": "Feature",
      "geometry": {
        "type": "Point",
        "coordinates": [
          -118.0914761,
          52.8734191
        ]
      },
      "properties": {
        "StationName": "Jasper",
        "ReadingDate": "2026-10-06T09:00:00+00:00",
        "forecast_valid_time_utc": "2026-10-06T12:00:00+00:00",
        "AQHI": 1.0,
        "AQHI_forecast_3h": 1.35934519767761,
        "forecast_spatial_weight": 0.748,
        "met_forecast_time_utc": "2026-10-06T12:00:00+00:00",
        "missing_feature_count": 0
      }
    },
    {
      "type": "Feature",
      "geometry": {
        "type": "Point",
        "coordinates": [
          -110.2330575,
          54.4138811
        ]
      },
      "properties": {
        "StationName": "Cold Lake South",
        "ReadingDate": "2026-10-06T09:00:00+00:00",
        "forecast_valid_time_utc": "2026-10-06T12:00:00+00:00",
        "AQHI": 2.0,
        "AQHI_forecast_3h": 1.98575460910797,
        "forecast_spatial_weight": 0.748,
        "met_forecast_time_utc": "2026-10-06T12:00:00+00:00",
        "missing_feature_count": 0
      }
    },
    {
      "type": "Feature",
      "geometry": {
        "type": "Point",
        "coordinates": [
          -114.139072,
          51.082631
        ]
      },
      "properties": {
        "StationName": "Calgary Varsity",
        "ReadingDate": "2026-10-06T09:00:00+00:00",
        "forecast_valid_time_utc": "2026-10-06T12:00:00+00:00",
        "AQHI": 2.0,
        "AQHI_forecast_3h": 2.25554704666138,
        "forecast_spatial_weight": 0.748,
        "met_forecast_time_utc": "2026-10-06T12:00:00+00:00",
        "missing_feature_count": 0
      }
    },
    {
      "type": "Feature",
      "geometry": {
        "type": "Point",
        "coordinates": [
          -111.64045,
          57.18945
        ]
      },
      "properties": {
        "StationName": "Fort McKay",
        "ReadingDate": "2026-10-06T09:00:00+00:00",
        "forecast_valid_time_utc": "2026-10-06T12:00:00+00:00",
        "AQHI": 1.0,
        "AQHI_forecast_3h": 1.32683980464935,
        "forecast_spatial_weight": 0.748,
        "met_forecast_time_utc": "2026-10-06T12:00:00+00:00",
        "missing_feature_count": 0
      }
    },
    {
      "type": "Feature",
      "geometry": {
        "type": "Point",
        "coordinates": [
          -113.52701,
          53.49778
        ]
      },
      "properties": {
        "StationName": "Edmonton Lendrum",
        "ReadingDate": "2026-10-06T10:00:00+00:00",
        "forecast_valid_time_utc": "2026-10-06T13:00:00+00:00",
        "AQHI": 2.0,
        "AQHI_forecast_3h": 1.82164907455444,
        "forecast_spatial_weight": 0.9147,
        "met_forecast_time_utc": "2026-10-06T13:00:00+00:00",
        "missing_feature_count": 0
      }
    },
    {
      "type": "Feature",
      "geometry": {
        "type": "Point",
        "coordinates": [
          -113.36797,
          53.54801
        ]
      },
      "properties": {
        "StationName": "Edmonton East",
        "ReadingDate": "2026-10-06T10:00:00+00:00",
        "forecast_valid_time_utc": "2026-10-06T13:00:00+00:00",
        "AQHI": 2.0,
        "AQHI_forecast_3h": 2.10299873352051,
        "forecast_spatial_weight": 0.9147,
        "met_forecast_time_utc": "2026-10-06T13:00:00+00:00",
        "missing_feature_count": 0
      }
    }
  ]
}