{
"type": "FeatureCollection",
"name": "AQHI_forecast_3h_contours",
"crs": { "type": "name", "properties": { "name": "urn:ogc:def:crs:OGC:1.3:CRS84" } },
"features": [
{ "type": "Feature", "properties": { "value": 1, "color": "#01cbff", "aqhi_range": "0.5-1.5", "forecast_valid_time": "2026-10-09 07:00:00+00:00", "model": "Cubist weighted IDW contour" }, "geometry": { "type": "MultiPolygon", "coordinates": [ [ [ [ -119.7277, 53.7967 ], [ -119.7027, 53.7967 ], [ -119.6527, 53.8467 ], [ -119.6777, 53.8717 ], [ -119.6777, 53.8967 ], [ -119.6527, 53.9217 ], [ -119.6527, 53.9467 ], [ -119.5777, 54.0217 ], [ -119.5777, 54.0467 ], [ -119.5027, 54.1217 ], [ -119.4777, 54.1217 ], [ -119.3527, 54.2467 ], [ -119.3277, 54.2467 ], [ -119.2527, 54.3217 ], [ -119.2277, 54.3217 ], [ -119.1777, 54.3717 ], [ -119.1527, 54.3717 ], [ -119.1277, 54.3967 ], [ -119.146, 54.415 ], [ -119.0965, 54.4217 ], [ -118.8777, 54.5397 ], [ -118.8277, 54.5429 ], [ -118.7527, 54.5889 ], [ -118.7027, 54.5893 ], [ -118.6777, 54.6136 ], [ -118.6277, 54.614 ], [ -118.6027, 54.6382 ], [ -118.5277, 54.6425 ], [ -118.5027, 54.6632 ], [ -118.4527, 54.664 ], [ -118.4277, 54.688 ], [ -118.3277, 54.69 ], [ -118.3027, 54.7141 ], [ -118.2027, 54.7165 ], [ -118.1777, 54.7407 ], [ -118.0277, 54.7455 ], [ -118.0027, 54.7698 ], [ -117.9535, 54.7717 ], [ -117.8692, 54.8217 ], [ -117.6281, 54.8467 ], [ -117.3777, 54.9505 ], [ -117.1027, 55.0306 ], [ -116.8821, 55.2217 ], [ -116.8796, 55.2467 ], [ -116.8527, 55.2704 ], [ -116.4714, 55.3155 ], [ -116.4527, 55.2967 ], [ -116.4527, 55.0967 ], [ -116.4777, 55.0717 ], [ -116.4777, 55.0217 ], [ -116.5027, 54.9967 ], [ -116.5527, 54.9967 ], [ -116.5777, 54.9717 ], [ -116.6527, 54.9717 ], [ -116.6777, 54.9467 ], [ -116.6527, 54.9217 ], [ -116.5027, 54.9217 ], [ -116.5277, 54.8967 ], [ -116.5277, 54.8467 ], [ -116.5527, 54.8217 ], [ -116.5527, 54.7967 ], [ -116.6527, 54.6717 ], [ -116.6277, 54.6467 ], [ -116.5777, 54.6467 ], [ -116.5527, 54.6217 ], [ -116.4777, 54.6217 ], [ -116.4527, 54.5967 ], [ -116.4027, 54.5967 ], [ -116.3277, 54.5467 ], [ -116.2777, 54.5467 ], [ -116.2027, 54.4967 ], [ -116.1527, 54.4967 ], [ -116.0277, 54.4217 ], [ -115.9527, 54.4217 ], [ -115.9277, 54.4467 ], [ -115.8527, 54.4467 ], [ -115.8277, 54.4717 ], [ -115.7277, 54.4717 ], [ -115.7027, 54.4967 ], [ -115.6027, 54.4967 ], [ -115.5777, 54.5217 ], [ -115.4027, 54.5217 ], [ -115.3777, 54.5467 ], [ -115.2787, 54.5467 ], [ -115.3527, 54.468 ], [ -115.4277, 54.4365 ], [ -115.5569, 54.3217 ], [ -115.578, 54.2967 ], [ -115.5772, 54.2217 ], [ -115.6181, 54.1717 ], [ -115.5744, 54.1217 ], [ -115.541, 54.0467 ], [ -115.513, 53.8717 ], [ -115.5353, 53.6217 ], [ -115.6202, 53.3217 ], [ -115.6634, 53.2217 ], [ -115.6464, 53.0217 ], [ -115.6188, 52.9717 ], [ -115.6144, 52.7717 ], [ -115.642, 52.7217 ], [ -115.7777, 52.5783 ], [ -115.8027, 52.5763 ], [ -115.9233, 52.4717 ], [ -115.9309, 52.4467 ], [ -115.9027, 52.4285 ], [ -115.9027, 52.404 ], [ -115.9777, 52.3042 ], [ -115.9865, 52.2556 ], [ -116.0027, 52.2717 ], [ -116.1027, 52.2717 ], [ -116.2527, 52.1217 ], [ -116.2777, 52.1467 ], [ -116.3277, 52.1467 ], [ -116.3527, 52.1717 ], [ -116.4277, 52.1967 ], [ -116.4527, 52.2217 ], [ -116.5277, 52.2217 ], [ -116.5527, 52.1967 ], [ -116.6277, 52.1967 ], [ -116.6527, 52.1717 ], [ -116.7277, 52.1717 ], [ -116.7527, 52.1467 ], [ -116.8277, 52.1467 ], [ -116.8527, 52.1217 ], [ -116.9527, 52.1217 ], [ -116.9777, 52.0967 ], [ -117.1277, 52.0967 ], [ -117.1527, 52.0717 ], [ -117.3024, 52.0717 ], [ -117.292, 52.0854 ], [ -117.3173, 52.194 ], [ -117.334, 52.1486 ], [ -117.3813, 52.1377 ], [ -117.5002, 52.1443 ], [ -117.5231, 52.1582 ], [ -117.6113, 52.1443 ], [ -117.6635, 52.1979 ], [ -117.7432, 52.194 ], [ -117.8183, 52.2264 ], [ -117.8396, 52.2741 ], [ -117.7961, 52.2925 ], [ -117.778, 52.3189 ], [ -117.7529, 52.3164 ], [ -117.7058, 52.3653 ], [ -117.7665, 52.4177 ], [ -117.8869, 52.4261 ], [ -117.9668, 52.4697 ], [ -117.988, 52.5002 ], [ -118.0133, 52.4839 ], [ -118.0211, 52.4555 ], [ -118.0507, 52.4571 ], [ -118.0304, 52.4381 ], [ -118.0442, 52.3985 ], [ -118.138, 52.4075 ], [ -118.1801, 52.3726 ], [ -118.2128, 52.3703 ], [ -118.2209, 52.3976 ], [ -118.2444, 52.408 ], [ -118.2553, 52.4495 ], [ -118.1934, 52.4778 ], [ -118.2355, 52.4902 ], [ -118.2891, 52.5385 ], [ -118.2728, 52.566 ], [ -118.3326, 52.5802 ], [ -118.3336, 52.6062 ], [ -118.3525, 52.6106 ], [ -118.3545, 52.6337 ], [ -118.301, 52.6541 ], [ -118.2901, 52.6777 ], [ -118.3433, 52.7089 ], [ -118.3428, 52.7386 ], [ -118.4224, 52.7758 ], [ -118.3889, 52.8489 ], [ -118.4525, 52.8554 ], [ -118.4612, 52.8694 ], [ -118.4483, 52.8853 ], [ -118.5001, 52.9064 ], [ -118.5438, 52.9085 ], [ -118.6081, 52.8796 ], [ -118.6134, 52.936 ], [ -118.6712, 52.9783 ], [ -118.6408, 52.9993 ], [ -118.6553, 53.0348 ], [ -118.6959, 53.0328 ], [ -118.7264, 53.0602 ], [ -118.7589, 53.038 ], [ -118.7762, 53.0454 ], [ -118.7323, 53.1192 ], [ -118.9474, 53.2389 ], [ -119.0238, 53.2319 ], [ -118.9994, 53.2127 ], [ -118.9994, 53.1928 ], [ -119.0288, 53.1642 ], [ -118.9999, 53.1486 ], [ -119.048, 53.1268 ], [ -119.0469, 53.1449 ], [ -119.0885, 53.1655 ], [ -119.1195, 53.1618 ], [ -119.146, 53.1912 ], [ -119.2331, 53.1935 ], [ -119.2571, 53.1766 ], [ -119.2515, 53.199 ], [ -119.3405, 53.2871 ], [ -119.3296, 53.2966 ], [ -119.356, 53.3123 ], [ -119.3559, 53.3401 ], [ -119.4061, 53.3681 ], [ -119.4519, 53.3566 ], [ -119.6045, 53.3834 ], [ -119.5983, 53.3657 ], [ -119.6241, 53.3596 ], [ -119.6689, 53.3678 ], [ -119.6954, 53.3906 ], [ -119.7254, 53.3888 ], [ -119.7906, 53.4754 ], [ -119.7804, 53.4918 ], [ -119.8027, 53.5 ], [ -119.8027, 53.5217 ], [ -119.7777, 53.5467 ], [ -119.7777, 53.5917 ], [ -119.7134, 53.6146 ], [ -119.7372, 53.6368 ], [ -119.7345, 53.6632 ], [ -119.7527, 53.6717 ], [ -119.7277, 53.7967 ] ] ], [ [ [ -113.1527, 53.5673 ], [ -113.1184, 53.5467 ], [ -113.1527, 53.5408 ], [ -113.1641, 53.5467 ], [ -113.1527, 53.5673 ] ] ], [ [ [ -115.2527, 54.5717 ], [ -115.2277, 54.5717 ], [ -115.2027, 54.5967 ], [ -115.1186, 54.6309 ], [ -115.1687, 54.5717 ], [ -115.2737, 54.5507 ], [ -115.2527, 54.5717 ] ] ], [ [ [ -119.835, 54.9217 ], [ -119.9027, 54.9854 ], [ -119.9352, 55.0467 ], [ -119.9401, 55.1217 ], [ -119.9229, 55.1717 ], [ -119.828, 55.2717 ], [ -119.6495, 55.3467 ], [ -119.4277, 55.3654 ], [ -119.2027, 55.3228 ], [ -119.0877, 55.2467 ], [ -119.0629, 55.1967 ], [ -119.0476, 55.0467 ], [ -119.0804, 54.9717 ], [ -119.1527, 54.9061 ], [ -119.2527, 54.8589 ], [ -119.3777, 54.8303 ], [ -119.5277, 54.8254 ], [ -119.6637, 54.8467 ], [ -119.835, 54.9217 ] ] ], [ [ [ -111.1777, 56.3519 ], [ -111.2195, 56.3967 ], [ -111.2206, 56.4467 ], [ -111.1527, 56.5109 ], [ -111.0527, 56.5414 ], [ -110.9527, 56.5428 ], [ -110.867, 56.5217 ], [ -110.8, 56.4717 ], [ -110.7894, 56.4467 ], [ -110.8007, 56.3967 ], [ -110.8637, 56.3467 ], [ -110.9777, 56.3162 ], [ -111.0992, 56.3217 ], [ -111.1777, 56.3519 ] ] ], [ [ [ -110.0527, 57.8941 ], [ -110.1027, 57.8949 ], [ -110.1277, 57.9178 ], [ -110.2027, 57.9189 ], [ -110.2277, 57.9413 ], [ -110.2777, 57.9428 ], [ -110.3027, 57.9645 ], [ -110.3777, 57.9665 ], [ -110.4027, 57.9874 ], [ -110.5027, 57.9899 ], [ -110.5277, 58.0132 ], [ -110.6277, 58.0131 ], [ -110.6527, 58.0362 ], [ -111.0527, 58.0667 ], [ -111.0777, 58.0812 ], [ -111.6527, 58.0949 ], [ -111.7277, 58.0762 ], [ -111.9777, 58.082 ], [ -112.0027, 58.0616 ], [ -112.1527, 58.0644 ], [ -112.1777, 58.0434 ], [ -112.3277, 58.0367 ], [ -113.3458, 58.1286 ], [ -113.2277, 58.1967 ], [ -113.1777, 58.1967 ], [ -113.1027, 58.2467 ], [ -113.0527, 58.2467 ], [ -113.0277, 58.2717 ], [ -112.9777, 58.2717 ], [ -112.9527, 58.2967 ], [ -112.8277, 58.3217 ], [ -112.8027, 58.3467 ], [ -112.7277, 58.3467 ], [ -112.7027, 58.3717 ], [ -112.6277, 58.3717 ], [ -112.6027, 58.3967 ], [ -112.5027, 58.3967 ], [ -112.4777, 58.4217 ], [ -112.3527, 58.4217 ], [ -112.3277, 58.4467 ], [ -112.1527, 58.4467 ], [ -112.1277, 58.4717 ], [ -111.7777, 58.4717 ], [ -111.7527, 58.4967 ], [ -111.5527, 58.4967 ], [ -111.5277, 58.4717 ], [ -111.1527, 58.4717 ], [ -111.1277, 58.4467 ], [ -110.9527, 58.4467 ], [ -110.9277, 58.4217 ], [ -110.8277, 58.4217 ], [ -110.8027, 58.3967 ], [ -110.7027, 58.3967 ], [ -110.6777, 58.3717 ], [ -110.5777, 58.3717 ], [ -110.5527, 58.3467 ], [ -110.5027, 58.3467 ], [ -110.4777, 58.3217 ], [ -110.4027, 58.3217 ], [ -110.3777, 58.2967 ], [ -110.3277, 58.2967 ], [ -110.3027, 58.2717 ], [ -110.1777, 58.2467 ], [ -110.0527, 58.1717 ], [ -110.0027, 58.1717 ], [ -110.0027, 57.8702 ], [ -110.0292, 57.8717 ], [ -110.0527, 57.8941 ] ] ] ] } },
{ "type": "Feature", "properties": { "value": 2, "color": "#0099cb", "aqhi_range": "1.5-2.5", "forecast_valid_time": "2026-10-09 07:00:00+00:00", "model": "Cubist weighted IDW contour" }, "geometry": { "type": "MultiPolygon", "coordinates": [ [ [ [ -114.5277, 49.7294 ], [ -114.5027, 49.7059 ], [ -114.3277, 49.7101 ], [ -114.3027, 49.6869 ], [ -114.0474, 49.6967 ], [ -114.0159, 49.7217 ], [ -113.8562, 49.7467 ], [ -113.7027, 49.8666 ], [ -113.6962, 49.8967 ], [ -113.7277, 49.9598 ], [ -113.2027, 50.2552 ], [ -113.0277, 50.3789 ], [ -112.9027, 50.5179 ], [ -112.724, 50.7967 ], [ -112.6782, 50.8217 ], [ -112.5028, 51.0467 ], [ -112.4495, 51.0717 ], [ -112.2277, 51.2588 ], [ -112.0527, 51.3717 ], [ -112.0613, 51.4717 ], [ -112.0883, 51.4967 ], [ -112.0855, 51.5217 ], [ -112.1055, 51.5467 ], [ -112.0838, 51.5967 ], [ -112.2527, 51.7828 ], [ -112.2777, 51.7837 ], [ -112.3594, 51.8717 ], [ -112.1527, 51.8717 ], [ -112.1277, 51.8967 ], [ -112.0277, 51.7717 ], [ -111.9777, 51.6467 ], [ -111.9527, 51.6217 ], [ -111.9527, 51.5717 ], [ -112.0027, 51.5217 ], [ -112.0027, 51.4967 ], [ -111.9027, 51.3217 ], [ -111.9027, 51.2217 ], [ -111.8527, 51.1717 ], [ -111.8527, 50.9217 ], [ -111.7777, 50.8717 ], [ -111.6527, 50.8467 ], [ -111.5277, 50.7717 ], [ -111.4027, 50.7217 ], [ -111.3527, 50.6717 ], [ -111.2777, 50.6467 ], [ -111.2027, 50.5717 ], [ -111.1777, 50.5717 ], [ -110.9277, 50.3217 ], [ -110.9277, 50.2967 ], [ -110.8777, 50.2467 ], [ -110.8777, 50.2217 ], [ -110.8277, 50.1717 ], [ -110.8277, 50.1467 ], [ -110.8027, 50.1217 ], [ -110.8027, 50.0717 ], [ -110.7277, 49.9967 ], [ -110.6527, 49.8217 ], [ -110.6277, 49.7967 ], [ -110.6277, 49.7467 ], [ -110.6027, 49.7217 ], [ -110.6027, 49.6217 ], [ -110.5777, 49.5967 ], [ -110.5777, 49.4967 ], [ -110.6027, 49.4967 ], [ -110.6777, 49.4467 ], [ -110.7277, 49.4467 ], [ -110.8027, 49.3967 ], [ -110.8027, 49.3467 ], [ -110.8277, 49.3217 ], [ -110.8277, 49.2967 ], [ -110.8777, 49.2467 ], [ -110.9027, 49.1717 ], [ -111.0027, 49.0717 ], [ -111.0027, 49.0467 ], [ -111.0517, 48.9978 ], [ -111.9794, 48.9985 ], [ -112.0027, 49.0217 ], [ -112.0277, 49.0217 ], [ -112.0777, 49.0717 ], [ -112.1527, 49.0967 ], [ -112.2027, 49.1467 ], [ -112.2277, 49.1467 ], [ -112.3277, 49.2467 ], [ -112.3527, 49.2467 ], [ -112.3777, 49.2717 ], [ -112.4777, 49.2717 ], [ -112.5027, 49.2967 ], [ -112.6027, 49.2967 ], [ -112.6277, 49.3217 ], [ -112.6777, 49.3217 ], [ -112.7027, 49.3467 ], [ -112.7777, 49.3467 ], [ -112.8027, 49.3717 ], [ -112.9277, 49.3967 ], [ -113.0527, 49.4717 ], [ -113.1027, 49.4717 ], [ -113.1277, 49.4967 ], [ -113.2027, 49.5217 ], [ -113.2527, 49.5717 ], [ -113.3277, 49.5967 ], [ -113.3777, 49.6467 ], [ -113.4027, 49.6467 ], [ -113.4277, 49.6717 ], [ -113.4527, 49.6717 ], [ -113.4777, 49.6467 ], [ -113.6277, 49.6467 ], [ -113.6527, 49.6217 ], [ -114.2777, 49.6217 ], [ -114.3027, 49.6467 ], [ -114.4777, 49.6467 ], [ -114.5027, 49.6717 ], [ -114.6027, 49.6717 ], [ -114.6277, 49.6967 ], [ -114.6762, 49.6967 ], [ -114.6277, 49.7276 ], [ -114.5277, 49.7294 ] ] ], [ [ [ -114.0923, 51.2717 ], [ -114.0791, 51.2967 ], [ -114.0527, 51.3066 ], [ -114.0027, 51.3007 ], [ -113.9815, 51.2717 ], [ -114.0027, 51.2459 ], [ -114.0726, 51.2467 ], [ -114.0923, 51.2717 ] ] ], [ [ [ -110.1027, 53.2967 ], [ -110.1277, 53.2717 ], [ -110.6777, 53.2717 ], [ -110.7027, 53.2467 ], [ -110.7027, 53.2217 ], [ -110.8027, 53.1217 ], [ -110.8277, 53.1217 ], [ -110.8527, 53.0967 ], [ -110.8527, 53.0717 ], [ -110.9777, 52.9467 ], [ -111.0027, 52.9467 ], [ -111.0527, 52.8967 ], [ -111.1777, 52.8967 ], [ -111.2277, 52.8467 ], [ -111.2527, 52.8467 ], [ -111.3777, 52.7217 ], [ -111.4027, 52.7217 ], [ -111.4527, 52.6717 ], [ -111.4777, 52.6717 ], [ -111.5027, 52.6467 ], [ -111.6277, 52.6217 ], [ -111.6527, 52.5967 ], [ -111.6277, 52.5717 ], [ -111.6527, 52.5717 ], [ -111.7277, 52.5217 ], [ -111.7777, 52.5217 ], [ -111.8027, 52.4967 ], [ -111.8527, 52.4967 ], [ -111.8777, 52.4717 ], [ -111.9527, 52.4717 ], [ -111.9777, 52.4467 ], [ -112.0277, 52.4467 ], [ -112.0527, 52.4217 ], [ -112.1777, 52.3967 ], [ -112.2527, 52.3467 ], [ -112.3277, 52.3467 ], [ -112.3527, 52.3217 ], [ -112.4027, 52.3217 ], [ -112.4277, 52.2967 ], [ -112.5027, 52.2967 ], [ -112.5277, 52.2717 ], [ -112.5777, 52.2717 ], [ -112.6027, 52.2467 ], [ -112.7777, 52.2467 ], [ -112.8027, 52.2217 ], [ -112.9027, 52.2217 ], [ -112.9277, 52.1967 ], [ -112.9055, 52.1746 ], [ -112.9777, 52.1701 ], [ -113.0527, 52.1333 ], [ -113.1027, 52.1299 ], [ -113.1277, 52.1065 ], [ -113.1777, 52.1027 ], [ -113.2027, 52.0798 ], [ -113.2777, 52.0732 ], [ -113.3027, 52.0514 ], [ -113.5027, 51.9988 ], [ -113.6527, 51.9752 ], [ -113.8277, 51.974 ], [ -113.8527, 51.9594 ], [ -114.5527, 51.9692 ], [ -114.5777, 51.9896 ], [ -114.7527, 51.9906 ], [ -114.7777, 52.0115 ], [ -114.9027, 52.0114 ], [ -114.9277, 52.0327 ], [ -115.0027, 52.0324 ], [ -115.0277, 52.054 ], [ -115.1027, 52.0536 ], [ -115.1277, 52.0741 ], [ -115.1777, 52.0739 ], [ -115.4027, 51.9703 ], [ -115.7027, 51.9259 ], [ -115.7277, 51.9504 ], [ -115.8027, 51.9489 ], [ -115.8027, 51.9717 ], [ -115.8277, 51.9967 ], [ -115.8527, 51.9967 ], [ -115.8777, 52.0217 ], [ -115.9027, 51.9967 ], [ -115.9527, 52.0467 ], [ -115.9527, 52.1217 ], [ -115.9777, 52.1467 ], [ -115.9777, 52.3042 ], [ -115.899, 52.4217 ], [ -115.9277, 52.4408 ], [ -115.9277, 52.4653 ], [ -115.8027, 52.5763 ], [ -115.7777, 52.5783 ], [ -115.642, 52.7217 ], [ -115.6144, 52.7717 ], [ -115.6188, 52.9717 ], [ -115.6464, 53.0217 ], [ -115.6634, 53.2217 ], [ -115.6202, 53.3217 ], [ -115.5353, 53.6217 ], [ -115.513, 53.8717 ], [ -115.541, 54.0467 ], [ -115.5744, 54.1217 ], [ -115.6181, 54.1717 ], [ -115.5772, 54.2217 ], [ -115.5777, 54.2974 ], [ -115.5027, 54.3754 ], [ -115.4277, 54.4365 ], [ -115.3527, 54.468 ], [ -115.2737, 54.5507 ], [ -115.1687, 54.5717 ], [ -115.1027, 54.6467 ], [ -114.9777, 54.6967 ], [ -114.9527, 54.7217 ], [ -114.9027, 54.7217 ], [ -114.8277, 54.7717 ], [ -114.7777, 54.7717 ], [ -114.7527, 54.7967 ], [ -114.7027, 54.7967 ], [ -114.6777, 54.8217 ], [ -114.6027, 54.8217 ], [ -114.6027, 54.7967 ], [ -114.5777, 54.7717 ], [ -114.5027, 54.7717 ], [ -114.2777, 54.8967 ], [ -114.2277, 54.8967 ], [ -114.2027, 54.9217 ], [ -114.1027, 54.9217 ], [ -114.0777, 54.9467 ], [ -113.8027, 54.9467 ], [ -113.7777, 54.9717 ], [ -113.7027, 54.9717 ], [ -113.6777, 54.9967 ], [ -113.6027, 54.9967 ], [ -113.5777, 55.0217 ], [ -113.4777, 55.0217 ], [ -113.4527, 55.0467 ], [ -113.3527, 55.0467 ], [ -113.3277, 55.0717 ], [ -113.3777, 55.1217 ], [ -113.2027, 55.1217 ], [ -113.1777, 55.1467 ], [ -113.1527, 55.1467 ], [ -113.1027, 55.1967 ], [ -112.9777, 55.2467 ], [ -112.9527, 55.2717 ], [ -112.9027, 55.2717 ], [ -112.7777, 55.3467 ], [ -112.6527, 55.3717 ], [ -112.5777, 55.4217 ], [ -112.7027, 55.4967 ], [ -112.8277, 55.5467 ], [ -112.9527, 55.6467 ], [ -112.9777, 55.6467 ], [ -113.2277, 55.8717 ], [ -113.2527, 55.8717 ], [ -113.4027, 55.9967 ], [ -113.4277, 55.9967 ], [ -113.4527, 56.0217 ], [ -113.4027, 56.0967 ], [ -113.4027, 56.1967 ], [ -113.4777, 56.2717 ], [ -113.5027, 56.2717 ], [ -113.6277, 56.3717 ], [ -113.6527, 56.3717 ], [ -113.8027, 56.5217 ], [ -113.8027, 56.5467 ], [ -113.9027, 56.6467 ], [ -113.9027, 56.6717 ], [ -113.9277, 56.6967 ], [ -113.9277, 56.8717 ], [ -113.9027, 56.8967 ], [ -113.9027, 56.9967 ], [ -113.8527, 57.0717 ], [ -113.8527, 57.1217 ], [ -113.8027, 57.1717 ], [ -113.7777, 57.2467 ], [ -113.6777, 57.3467 ], [ -113.6777, 57.3717 ], [ -113.6277, 57.4217 ], [ -113.6027, 57.4467 ], [ -113.5777, 57.4467 ], [ -113.4777, 57.5467 ], [ -113.4527, 57.5467 ], [ -113.3777, 57.6217 ], [ -113.3027, 57.6467 ], [ -113.2527, 57.6967 ], [ -113.0777, 57.7717 ], [ -113.0527, 57.7967 ], [ -113.0777, 57.8217 ], [ -113.1027, 57.8217 ], [ -113.1527, 57.8717 ], [ -113.1777, 57.8717 ], [ -113.2277, 57.9217 ], [ -113.2527, 57.9217 ], [ -113.3027, 57.9717 ], [ -113.3277, 57.9717 ], [ -113.4277, 58.0717 ], [ -113.4277, 58.0967 ], [ -113.3458, 58.1286 ], [ -112.3277, 58.0367 ], [ -112.1777, 58.0434 ], [ -112.1527, 58.0644 ], [ -112.0027, 58.0616 ], [ -111.9777, 58.082 ], [ -111.7277, 58.0762 ], [ -111.6527, 58.0949 ], [ -111.0777, 58.0812 ], [ -111.0527, 58.0667 ], [ -110.6527, 58.0362 ], [ -110.6277, 58.0131 ], [ -110.5277, 58.0132 ], [ -110.5027, 57.9899 ], [ -110.4027, 57.9874 ], [ -110.3777, 57.9665 ], [ -110.3027, 57.9645 ], [ -110.2027, 57.9189 ], [ -110.1277, 57.9178 ], [ -110.1027, 57.8949 ], [ -110.0527, 57.8941 ], [ -110.0277, 57.8707 ], [ -110.0027, 57.8702 ], [ -110.0054, 53.2983 ], [ -110.1027, 53.2967 ] ], [ [ -113.1277, 53.5419 ], [ -113.1184, 53.5467 ], [ -113.1527, 53.5673 ], [ -113.1641, 53.5467 ], [ -113.1277, 53.5419 ] ], [ [ -110.9527, 56.3196 ], [ -110.8527, 56.3527 ], [ -110.8007, 56.3967 ], [ -110.7894, 56.4467 ], [ -110.8, 56.4717 ], [ -110.867, 56.5217 ], [ -110.9777, 56.545 ], [ -111.0777, 56.5368 ], [ -111.1777, 56.497 ], [ -111.2206, 56.4467 ], [ -111.2195, 56.3967 ], [ -111.169, 56.3467 ], [ -111.0777, 56.3178 ], [ -110.9527, 56.3196 ] ] ], [ [ [ -112.8027, 52.1467 ], [ -112.7992, 52.1433 ], [ -112.8027, 52.143 ], [ -112.8027, 52.1467 ] ] ], [ [ [ -112.8527, 52.1717 ], [ -112.8427, 52.1618 ], [ -112.8527, 52.1609 ], [ -112.8667, 52.1717 ], [ -112.8527, 52.1717 ] ] ], [ [ [ -119.9777, 56.4717 ], [ -119.9527, 56.4967 ], [ -119.8527, 56.4967 ], [ -119.8277, 56.5217 ], [ -118.6277, 56.5217 ], [ -118.6027, 56.4967 ], [ -118.3277, 56.4967 ], [ -118.3027, 56.4717 ], [ -118.1527, 56.4717 ], [ -118.1277, 56.4467 ], [ -118.0027, 56.4467 ], [ -117.9777, 56.4217 ], [ -117.9027, 56.4217 ], [ -117.8777, 56.3967 ], [ -117.8027, 56.3967 ], [ -117.7777, 56.3717 ], [ -117.7027, 56.3717 ], [ -117.6777, 56.3467 ], [ -117.6277, 56.3467 ], [ -117.6027, 56.3217 ], [ -117.5527, 56.3217 ], [ -117.5277, 56.2967 ], [ -117.4777, 56.2967 ], [ -117.4527, 56.2717 ], [ -117.4277, 56.2717 ], [ -117.4027, 56.2467 ], [ -117.3527, 56.2467 ], [ -117.3277, 56.2217 ], [ -117.3027, 56.2217 ], [ -117.1777, 56.1467 ], [ -117.1027, 56.1217 ], [ -116.9777, 56.0217 ], [ -116.9527, 56.0217 ], [ -116.8777, 55.9467 ], [ -116.8527, 55.9467 ], [ -116.7027, 55.7967 ], [ -116.7027, 55.7467 ], [ -116.6777, 55.7217 ], [ -116.6527, 55.7217 ], [ -116.5527, 55.5967 ], [ -116.5527, 55.5717 ], [ -116.5277, 55.5467 ], [ -116.5277, 55.4967 ], [ -116.4777, 55.4217 ], [ -116.4714, 55.3155 ], [ -116.8527, 55.2704 ], [ -116.8796, 55.2467 ], [ -116.8821, 55.2217 ], [ -117.1027, 55.0306 ], [ -117.3777, 54.9505 ], [ -117.6281, 54.8467 ], [ -117.8692, 54.8217 ], [ -117.9535, 54.7717 ], [ -118.0027, 54.7698 ], [ -118.0277, 54.7455 ], [ -118.1777, 54.7407 ], [ -118.2027, 54.7165 ], [ -118.3027, 54.7141 ], [ -118.3277, 54.69 ], [ -118.4277, 54.688 ], [ -118.4527, 54.664 ], [ -118.5027, 54.6632 ], [ -118.5277, 54.6425 ], [ -118.6027, 54.6382 ], [ -118.6277, 54.614 ], [ -118.6777, 54.6136 ], [ -118.7027, 54.5893 ], [ -118.7527, 54.5889 ], [ -118.8277, 54.5429 ], [ -118.8777, 54.5397 ], [ -119.1027, 54.4196 ], [ -119.4527, 54.4217 ], [ -119.4777, 54.4467 ], [ -119.6527, 54.4467 ], [ -119.6777, 54.4717 ], [ -119.8027, 54.4717 ], [ -119.8277, 54.4967 ], [ -119.9277, 54.4967 ], [ -119.9527, 54.5217 ], [ -120.0, 54.5217 ], [ -120.0027, 56.2172 ], [ -120.0, 56.3994 ], [ -119.9777, 56.4217 ], [ -119.9777, 56.4717 ] ], [ [ -119.5027, 54.8242 ], [ -119.3527, 54.834 ], [ -119.2277, 54.8682 ], [ -119.1304, 54.9217 ], [ -119.0777, 54.9757 ], [ -119.0476, 55.0467 ], [ -119.0629, 55.1967 ], [ -119.0877, 55.2467 ], [ -119.2027, 55.3228 ], [ -119.4277, 55.3654 ], [ -119.6495, 55.3467 ], [ -119.828, 55.2717 ], [ -119.8874, 55.2217 ], [ -119.9336, 55.1467 ], [ -119.9425, 55.0967 ], [ -119.9277, 55.0274 ], [ -119.8917, 54.9717 ], [ -119.8277, 54.9167 ], [ -119.6527, 54.8439 ], [ -119.5027, 54.8242 ] ] ] ] } },
{ "type": "Feature", "properties": { "value": 3, "color": "#016797", "aqhi_range": "2.5-3.5", "forecast_valid_time": "2026-10-09 07:00:00+00:00", "model": "Cubist weighted IDW contour" }, "geometry": { "type": "Polygon", "coordinates": [ [ [ -116.0777, 51.3967 ], [ -116.0527, 51.4217 ], [ -116.0277, 51.4967 ], [ -115.9277, 51.6217 ], [ -115.9277, 51.6467 ], [ -115.8027, 51.7717 ], [ -115.8527, 51.8467 ], [ -115.8527, 51.8967 ], [ -115.8027, 51.9489 ], [ -115.7277, 51.9504 ], [ -115.7027, 51.9259 ], [ -115.6527, 51.9259 ], [ -115.4527, 51.957 ], [ -115.1777, 52.0739 ], [ -115.1277, 52.0741 ], [ -115.1027, 52.0536 ], [ -115.0277, 52.054 ], [ -115.0027, 52.0324 ], [ -114.9277, 52.0327 ], [ -114.9027, 52.0114 ], [ -114.7777, 52.0115 ], [ -114.7527, 51.9906 ], [ -114.5777, 51.9896 ], [ -114.5527, 51.9692 ], [ -113.8527, 51.9594 ], [ -113.8277, 51.974 ], [ -113.6527, 51.9752 ], [ -113.5027, 51.9988 ], [ -113.3027, 52.0514 ], [ -113.2777, 52.0732 ], [ -113.2027, 52.0798 ], [ -113.1777, 52.1027 ], [ -113.1277, 52.1065 ], [ -113.1027, 52.1299 ], [ -113.0527, 52.1333 ], [ -112.9777, 52.1701 ], [ -112.9055, 52.1746 ], [ -112.7992, 52.1433 ], [ -112.5777, 52.0217 ], [ -112.5527, 52.0217 ], [ -112.5277, 51.9967 ], [ -112.5027, 51.9967 ], [ -112.3777, 51.8967 ], [ -112.3527, 51.8967 ], [ -112.3349, 51.8789 ], [ -112.3594, 51.8717 ], [ -112.3527, 51.8604 ], [ -112.2777, 51.7837 ], [ -112.2527, 51.7828 ], [ -112.0838, 51.5967 ], [ -112.1055, 51.5467 ], [ -112.0855, 51.5217 ], [ -112.0883, 51.4967 ], [ -112.0613, 51.4717 ], [ -112.0656, 51.4217 ], [ -112.048, 51.3967 ], [ -112.0527, 51.3717 ], [ -112.2277, 51.2588 ], [ -112.4495, 51.0717 ], [ -112.5028, 51.0467 ], [ -112.6782, 50.8217 ], [ -112.724, 50.7967 ], [ -112.9383, 50.4717 ], [ -113.0777, 50.3381 ], [ -113.7277, 49.9598 ], [ -113.6962, 49.8967 ], [ -113.7027, 49.8666 ], [ -113.8562, 49.7467 ], [ -114.0159, 49.7217 ], [ -114.0474, 49.6967 ], [ -114.2777, 49.6877 ], [ -114.3027, 49.6869 ], [ -114.3277, 49.7101 ], [ -114.5027, 49.7059 ], [ -114.5277, 49.7294 ], [ -114.6359, 49.7274 ], [ -114.6591, 49.7651 ], [ -114.6361, 49.7848 ], [ -114.6399, 49.8277 ], [ -114.6918, 49.8963 ], [ -114.6833, 49.9671 ], [ -114.6515, 49.9755 ], [ -114.6666, 50.0033 ], [ -114.6577, 50.0297 ], [ -114.6761, 50.0481 ], [ -114.6625, 50.0649 ], [ -114.6913, 50.0713 ], [ -114.736, 50.1204 ], [ -114.7247, 50.1902 ], [ -114.7702, 50.25 ], [ -114.7528, 50.2938 ], [ -114.7804, 50.2998 ], [ -114.8, 50.3298 ], [ -114.7686, 50.3588 ], [ -114.8192, 50.3691 ], [ -114.8248, 50.3933 ], [ -114.8623, 50.3945 ], [ -114.8598, 50.4238 ], [ -114.9122, 50.4514 ], [ -115.0205, 50.5847 ], [ -115.0521, 50.5714 ], [ -115.0853, 50.5897 ], [ -115.1175, 50.5698 ], [ -115.1736, 50.5676 ], [ -115.2081, 50.5278 ], [ -115.231, 50.5449 ], [ -115.2397, 50.5892 ], [ -115.3115, 50.6286 ], [ -115.2742, 50.6489 ], [ -115.3123, 50.7239 ], [ -115.3546, 50.7227 ], [ -115.3789, 50.7053 ], [ -115.4138, 50.7113 ], [ -115.4124, 50.7336 ], [ -115.4363, 50.7557 ], [ -115.4811, 50.7552 ], [ -115.4976, 50.7823 ], [ -115.5604, 50.8047 ], [ -115.5731, 50.8377 ], [ -115.6394, 50.838 ], [ -115.6489, 50.8741 ], [ -115.5621, 50.8943 ], [ -115.6098, 50.9263 ], [ -115.597, 50.9399 ], [ -115.6283, 50.9809 ], [ -115.6923, 51.0286 ], [ -115.7268, 51.0187 ], [ -115.767, 51.0394 ], [ -115.7736, 51.0577 ], [ -115.7534, 51.0744 ], [ -115.8028, 51.0696 ], [ -115.8128, 51.0865 ], [ -115.8425, 51.0765 ], [ -115.9009, 51.0938 ], [ -115.9236, 51.0831 ], [ -115.9683, 51.1222 ], [ -116.0088, 51.126 ], [ -116.0074, 51.1563 ], [ -116.0368, 51.17 ], [ -116.0, 51.1939 ], [ -116.0021, 51.2154 ], [ -116.0493, 51.2274 ], [ -116.0652, 51.2479 ], [ -116.1189, 51.2555 ], [ -116.1027, 51.2717 ], [ -116.0777, 51.3967 ] ], [ [ -114.0007, 51.2467 ], [ -113.9815, 51.2717 ], [ -113.9962, 51.2967 ], [ -114.0277, 51.3074 ], [ -114.0791, 51.2967 ], [ -114.0923, 51.2717 ], [ -114.0527, 51.2416 ], [ -114.0007, 51.2467 ] ] ] } }
]
}
