{"type": "FeatureCollection", "features": [{"type": "Feature", "properties": {"sensor_index": 266614, "name": "Pit 8 PRM2(new2025)", "pm25": 0.1, "pm25_a": 0.1, "pm25_b": 0.0, "last_seen": 1773825331, "location_type": 0}, "geometry": {"type": "Point", "coordinates": [-105.29647, 49.235546]}}, {"type": "Feature", "properties": {"sensor_index": 272918, "name": "Shaunavon Public School", "pm25": 0.0, "pm25_a": 0.0, "pm25_b": 0.0, "last_seen": 1773825305, "location_type": 0}, "geometry": {"type": "Point", "coordinates": [-108.412155, 49.64833]}}, {"type": "Feature", "properties": {"sensor_index": 13089, "name": "East Regina", "pm25": 2.3, "pm25_a": 0.0, "pm25_b": 2.3, "last_seen": 1773825349, "location_type": 0}, "geometry": {"type": "Point", "coordinates": [-104.40226, 50.44632]}}, {"type": "Feature", "properties": {"sensor_index": 278055, "name": "Aberdeen", "pm25": 4.0, "pm25_a": 4.6, "pm25_b": 3.4, "last_seen": 1773825304, "location_type": 0}, "geometry": {"type": "Point", "coordinates": [-106.28809, 52.32907]}}, {"type": "Feature", "properties": {"sensor_index": 279087, "name": "Avonlea", "pm25": 0.1, "pm25_a": 0.0, "pm25_b": 0.1, "last_seen": 1773825283, "location_type": 0}, "geometry": {"type": "Point", "coordinates": [-105.05532, 50.01725]}}, {"type": "Feature", "properties": {"sensor_index": 280276, "name": "Olive Grove, Regina SK", "pm25": 0.8, "pm25_a": 0.8, "pm25_b": 0.9, "last_seen": 1773825267, "location_type": 0}, "geometry": {"type": "Point", "coordinates": [-104.53042, 50.425274]}}, {"type": "Feature", "properties": {"sensor_index": 280344, "name": "Holy Trinity Catholic School Division Board Office", "pm25": 3.2, "pm25_a": 3.5, "pm25_b": 2.9, "last_seen": 1773825308, "location_type": 0}, "geometry": {"type": "Point", "coordinates": [-105.49968, 50.3942]}}, {"type": "Feature", "properties": {"sensor_index": 280768, "name": "Columbus Baseball Park", "pm25": 1.0, "pm25_a": 1.0, "pm25_b": 1.0, "last_seen": 1773825359, "location_type": 0}, "geometry": {"type": "Point", "coordinates": [-104.641235, 50.43188]}}, {"type": "Feature", "properties": {"sensor_index": 284004, "name": "#1 Admin Exterior", "pm25": 1.4, "pm25_a": 1.4, "pm25_b": 1.5, "last_seen": 1773825320, "location_type": 0}, "geometry": {"type": "Point", "coordinates": [-102.81751, 54.64922]}}, {"type": "Feature", "properties": {"sensor_index": 284246, "name": "#4 Exploration", "pm25": 0.8, "pm25_a": 1.1, "pm25_b": 0.4, "last_seen": 1773825304, "location_type": 0}, "geometry": {"type": "Point", "coordinates": [-102.830734, 54.640182]}}, {"type": "Feature", "properties": {"sensor_index": 284296, "name": "#2_Comms Tower Sea Can", "pm25": 1.5, "pm25_a": 1.0, "pm25_b": 1.9, "last_seen": 1773825275, "location_type": 0}, "geometry": {"type": "Point", "coordinates": [-102.815796, 54.62586]}}, {"type": "Feature", "properties": {"sensor_index": 287588, "name": "AQSU-Parks Canada Ops", "pm25": 0.0, "pm25_a": 0.0, "pm25_b": 0.0, "last_seen": 1773825349, "location_type": 0}, "geometry": {"type": "Point", "coordinates": [-107.7334, 49.24228]}}, {"type": "Feature", "properties": {"sensor_index": 288558, "name": "Whitecap Dakota Nation", "pm25": 0.4, "pm25_a": 0.3, "pm25_b": 0.6, "last_seen": 1773825290, "location_type": 0}, "geometry": {"type": "Point", "coordinates": [-106.71199, 51.876564]}}, {"type": "Feature", "properties": {"sensor_index": 291698, "name": "Muskoday First Nation", "pm25": 10.0, "pm25_a": 10.2, "pm25_b": 9.8, "last_seen": 1773825363, "location_type": 0}, "geometry": {"type": "Point", "coordinates": [-105.49045, 53.089066]}}, {"type": "Feature", "properties": {"sensor_index": 31411, "name": "SPSA Radio Technical Services", "pm25": 7.9, "pm25_a": 8.0, "pm25_b": 7.7, "last_seen": 1773825353, "location_type": 0}, "geometry": {"type": "Point", "coordinates": [-105.7409, 53.19702]}}, {"type": "Feature", "properties": {"sensor_index": 35205, "name": "Indian Head", "pm25": 3.7, "pm25_a": 2.9, "pm25_b": 4.6, "last_seen": 1773825359, "location_type": 0}, "geometry": {"type": "Point", "coordinates": [-103.67302, 50.530582]}}, {"type": "Feature", "properties": {"sensor_index": 37889, "name": "AQSU-3317", "pm25": 0.1, "pm25_a": 0.0, "pm25_b": 0.1, "last_seen": 1773825303, "location_type": 0}, "geometry": {"type": "Point", "coordinates": [-107.0625, 51.49611]}}, {"type": "Feature", "properties": {"sensor_index": 39067, "name": "Flying Dust First Nation - MLTC", "pm25": 7.2, "pm25_a": 7.0, "pm25_b": 7.3, "last_seen": 1773825311, "location_type": 0}, "geometry": {"type": "Point", "coordinates": [-108.40431, 54.135418]}}, {"type": "Feature", "properties": {"sensor_index": 80161, "name": "Waterhen Lake First Nation (MLTC Sensor)", "pm25": 0.0, "pm25_a": 13.1, "pm25_b": 0.0, "last_seen": 1773825297, "location_type": 0}, "geometry": {"type": "Point", "coordinates": [-108.41052, 54.51842]}}, {"type": "Feature", "properties": {"sensor_index": 80173, "name": "Sucker River", "pm25": 3.1, "pm25_a": 3.6, "pm25_b": 2.5, "last_seen": 1773825280, "location_type": 0}, "geometry": {"type": "Point", "coordinates": [-105.16657, 55.282566]}}, {"type": "Feature", "properties": {"sensor_index": 83949, "name": "Martensville", "pm25": 9.6, "pm25_a": 18.0, "pm25_b": 1.2, "last_seen": 1773825374, "location_type": 0}, "geometry": {"type": "Point", "coordinates": [-106.655334, 52.28792]}}, {"type": "Feature", "properties": {"sensor_index": 83977, "name": "Saskatoon East", "pm25": 1.9, "pm25_a": 1.6, "pm25_b": 2.2, "last_seen": 1773825325, "location_type": 0}, "geometry": {"type": "Point", "coordinates": [-106.615204, 52.104385]}}, {"type": "Feature", "properties": {"sensor_index": 90265, "name": "Buffalo River Dene Nation - MLTC", "pm25": 0.0, "pm25_a": 0.0, "pm25_b": 0.0, "last_seen": 1773825372, "location_type": 0}, "geometry": {"type": "Point", "coordinates": [-108.92564, 55.92818]}}, {"type": "Feature", "properties": {"sensor_index": 95365, "name": "Grandmothers Bay", "pm25": 36.8, "pm25_a": 38.0, "pm25_b": 35.5, "last_seen": 1773825341, "location_type": 0}, "geometry": {"type": "Point", "coordinates": [-104.71085, 55.625896]}}, {"type": "Feature", "properties": {"sensor_index": 95507, "name": "La Ronge", "pm25": 2.8, "pm25_a": 3.0, "pm25_b": 2.6, "last_seen": 1773825329, "location_type": 0}, "geometry": {"type": "Point", "coordinates": [-105.29466, 55.099724]}}, {"type": "Feature", "properties": {"sensor_index": 106306, "name": "Hall Lake", "pm25": 3.4, "pm25_a": 4.3, "pm25_b": 2.4, "last_seen": 1773825357, "location_type": 0}, "geometry": {"type": "Point", "coordinates": [-105.91855, 55.11413]}}, {"type": "Feature", "properties": {"sensor_index": 132003, "name": "AQSU-Wascana", "pm25": 0.1, "pm25_a": 3225.2, "pm25_b": 0.1, "last_seen": 1773270992, "location_type": 0}, "geometry": {"type": "Point", "coordinates": [-104.52927, 50.41701]}}, {"type": "Feature", "properties": {"sensor_index": 132901, "name": "Weyburn Arenas", "pm25": 3209.4, "pm25_a": 3206.5, "pm25_b": 3212.3, "last_seen": 1773825295, "location_type": 0}, "geometry": {"type": "Point", "coordinates": [-103.86062, 49.6659]}}, {"type": "Feature", "properties": {"sensor_index": 134938, "name": "NWR Weather", "pm25": 0.0, "pm25_a": NaN, "pm25_b": 0.0, "last_seen": 1773825338, "location_type": 0}, "geometry": {"type": "Point", "coordinates": [-104.660446, 50.501785]}}, {"type": "Feature", "properties": {"sensor_index": 136784, "name": "Johnson Shoyama Graduate School of Public Policy \u2014 University of Regina", "pm25": 0.0, "pm25_a": 0.0, "pm25_b": 0.0, "last_seen": 1773825320, "location_type": 0}, "geometry": {"type": "Point", "coordinates": [-104.611, 50.440098]}}, {"type": "Feature", "properties": {"sensor_index": 137258, "name": "AQSU-E4DB", "pm25": 13.4, "pm25_a": 12.1, "pm25_b": 14.6, "last_seen": 1773825328, "location_type": 0}, "geometry": {"type": "Point", "coordinates": [-103.17209, 49.669876]}}, {"type": "Feature", "properties": {"sensor_index": 137774, "name": "Poplar", "pm25": 0.0, "pm25_a": 0.0, "pm25_b": 0.0, "last_seen": 1773825296, "location_type": 0}, "geometry": {"type": "Point", "coordinates": [-106.671135, 52.118786]}}, {"type": "Feature", "properties": {"sensor_index": 143688, "name": "St. Joseph High School", "pm25": 22.3, "pm25_a": 18.7, "pm25_b": 25.9, "last_seen": 1773825265, "location_type": 0}, "geometry": {"type": "Point", "coordinates": [-106.583755, 52.14765]}}, {"type": "Feature", "properties": {"sensor_index": 145074, "name": "Dalmeny Downtown", "pm25": 2.2, "pm25_a": 2.8, "pm25_b": 1.7, "last_seen": 1773825357, "location_type": 0}, "geometry": {"type": "Point", "coordinates": [-106.773705, 52.340893]}}, {"type": "Feature", "properties": {"sensor_index": 151158, "name": "Goodwater Field Office", "pm25": 9.3, "pm25_a": 8.2, "pm25_b": 10.4, "last_seen": 1773825300, "location_type": 0}, "geometry": {"type": "Point", "coordinates": [-103.70854, 49.469376]}}, {"type": "Feature", "properties": {"sensor_index": 151170, "name": "CARLYE sk", "pm25": 0.0, "pm25_a": 10.1, "pm25_b": 0.0, "last_seen": 1773825309, "location_type": 0}, "geometry": {"type": "Point", "coordinates": [-102.27627, 49.638657]}}, {"type": "Feature", "properties": {"sensor_index": 151386, "name": "Weyburn", "pm25": 0.0, "pm25_a": 39.2, "pm25_b": 0.0, "last_seen": 1773825281, "location_type": 0}, "geometry": {"type": "Point", "coordinates": [-103.85062, 49.658752]}}, {"type": "Feature", "properties": {"sensor_index": 152072, "name": "Leisure Centre", "pm25": 8.1, "pm25_a": 1.6, "pm25_b": 14.6, "last_seen": 1773825277, "location_type": 0}, "geometry": {"type": "Point", "coordinates": [-103.84738, 49.669205]}}, {"type": "Feature", "properties": {"sensor_index": 152154, "name": "Mosaic Stadium", "pm25": 2.2, "pm25_a": 0.9, "pm25_b": 3.5, "last_seen": 1773825362, "location_type": 0}, "geometry": {"type": "Point", "coordinates": [-104.63257, 50.451645]}}, {"type": "Feature", "properties": {"sensor_index": 157597, "name": "Rook I Camp", "pm25": 0.5, "pm25_a": 0.6, "pm25_b": 0.4, "last_seen": 1773825318, "location_type": 0}, "geometry": {"type": "Point", "coordinates": [-109.27013, 57.652084]}}, {"type": "Feature", "properties": {"sensor_index": 166031, "name": "Saskatoon Eastview", "pm25": 15.5, "pm25_a": 4.1, "pm25_b": 27.0, "last_seen": 1773825340, "location_type": 0}, "geometry": {"type": "Point", "coordinates": [-106.61149, 52.090675]}}, {"type": "Feature", "properties": {"sensor_index": 175687, "name": "AQSU-41A9", "pm25": 17.5, "pm25_a": 15.8, "pm25_b": 19.2, "last_seen": 1773825330, "location_type": 0}, "geometry": {"type": "Point", "coordinates": [-103.98449, 52.739178]}}, {"type": "Feature", "properties": {"sensor_index": 192963, "name": "Cypress Hills Prov Park SPSA", "pm25": 0.0, "pm25_a": 0.0, "pm25_b": 0.0, "last_seen": 1773825316, "location_type": 0}, "geometry": {"type": "Point", "coordinates": [-109.53532, 49.663673]}}, {"type": "Feature", "properties": {"sensor_index": 193091, "name": "Rams 1", "pm25": 0.4, "pm25_a": 0.0, "pm25_b": 0.8, "last_seen": 1773825298, "location_type": 0}, "geometry": {"type": "Point", "coordinates": [-104.586845, 50.414425]}}, {"type": "Feature", "properties": {"sensor_index": 193110, "name": "Mosaic Stadium Upper Level", "pm25": 0.4, "pm25_a": 0.7, "pm25_b": 0.1, "last_seen": 1773825359, "location_type": 0}, "geometry": {"type": "Point", "coordinates": [-104.63419, 50.44997]}}, {"type": "Feature", "properties": {"sensor_index": 195477, "name": "Colonsay", "pm25": 0.5, "pm25_a": 0.0, "pm25_b": 1.0, "last_seen": 1773825364, "location_type": 0}, "geometry": {"type": "Point", "coordinates": [-105.87072, 51.976357]}}, {"type": "Feature", "properties": {"sensor_index": 195485, "name": "Blaine Lake", "pm25": 6.9, "pm25_a": 6.0, "pm25_b": 7.7, "last_seen": 1773825320, "location_type": 0}, "geometry": {"type": "Point", "coordinates": [-106.87386, 52.831364]}}, {"type": "Feature", "properties": {"sensor_index": 195505, "name": "Delisle", "pm25": 0.0, "pm25_a": 0.1, "pm25_b": 0.0, "last_seen": 1773825357, "location_type": 0}, "geometry": {"type": "Point", "coordinates": [-107.13111, 51.92633]}}, {"type": "Feature", "properties": {"sensor_index": 195511, "name": "Hanley", "pm25": 0.0, "pm25_a": 0.0, "pm25_b": 0.0, "last_seen": 1773825262, "location_type": 0}, "geometry": {"type": "Point", "coordinates": [-106.44209, 51.633156]}}, {"type": "Feature", "properties": {"sensor_index": 195555, "name": "Rosthern", "pm25": 5.5, "pm25_a": 5.0, "pm25_b": 6.0, "last_seen": 1773825315, "location_type": 0}, "geometry": {"type": "Point", "coordinates": [-106.34828, 52.666874]}}, {"type": "Feature", "properties": {"sensor_index": 195659, "name": "Foley Base PRM1", "pm25": 0.1, "pm25_a": 0.0, "pm25_b": 0.1, "last_seen": 1773825364, "location_type": 0}, "geometry": {"type": "Point", "coordinates": [-105.47477, 49.23043]}}, {"type": "Feature", "properties": {"sensor_index": 196017, "name": "Wildwood", "pm25": 2.3, "pm25_a": 2.7, "pm25_b": 1.9, "last_seen": 1773825319, "location_type": 0}, "geometry": {"type": "Point", "coordinates": [-106.593544, 52.107727]}}, {"type": "Feature", "properties": {"sensor_index": 196429, "name": "All Saints Catholic School", "pm25": 0.0, "pm25_a": 0.0, "pm25_b": 0.0, "last_seen": 1773825352, "location_type": 0}, "geometry": {"type": "Point", "coordinates": [-107.78, 50.3135]}}, {"type": "Feature", "properties": {"sensor_index": 196479, "name": "Christ The King School", "pm25": 3608.0, "pm25_a": 3621.5, "pm25_b": 3594.5, "last_seen": 1773825314, "location_type": 0}, "geometry": {"type": "Point", "coordinates": [-108.40426, 49.65119]}}, {"type": "Feature", "properties": {"sensor_index": 209603, "name": "FHQTC LRES Urban Office", "pm25": 1.3, "pm25_a": 1.7, "pm25_b": 1.0, "last_seen": 1773825369, "location_type": 0}, "geometry": {"type": "Point", "coordinates": [-104.58396, 50.471775]}}, {"type": "Feature", "properties": {"sensor_index": 209845, "name": "AQSU-Muskeg Lake", "pm25": 4.9, "pm25_a": 5.1, "pm25_b": 4.8, "last_seen": 1773825287, "location_type": 0}, "geometry": {"type": "Point", "coordinates": [-106.87685, 53.003407]}}, {"type": "Feature", "properties": {"sensor_index": 211611, "name": "FHQTC LRES Treaty Four Territory Air Quality Monitor", "pm25": 0.4, "pm25_a": 0.5, "pm25_b": 0.2, "last_seen": 1773825351, "location_type": 0}, "geometry": {"type": "Point", "coordinates": [-103.78721, 50.756958]}}, {"type": "Feature", "properties": {"sensor_index": 214441, "name": "AQSU-Mistawasis", "pm25": 14.8, "pm25_a": 13.0, "pm25_b": 16.6, "last_seen": 1773273649, "location_type": 0}, "geometry": {"type": "Point", "coordinates": [-106.80666, 53.174923]}}, {"type": "Feature", "properties": {"sensor_index": 218169, "name": "Mosaic Stadium Sideline (2)", "pm25": 0.8, "pm25_a": 1.0, "pm25_b": 0.5, "last_seen": 1773825315, "location_type": 0}, "geometry": {"type": "Point", "coordinates": [-104.63352, 50.45109]}}, {"type": "Feature", "properties": {"sensor_index": 220665, "name": "SAS / Saskatoon Kinsmen Henk Ruys Soccer Centre", "pm25": 4.5, "pm25_a": 4.5, "pm25_b": 4.6, "last_seen": 1773825375, "location_type": 0}, "geometry": {"type": "Point", "coordinates": [-106.631836, 52.1678]}}, {"type": "Feature", "properties": {"sensor_index": 223245, "name": "All Nations Healing Hospital/FHQTC Health Services", "pm25": 0.2, "pm25_a": 0.3, "pm25_b": 0.0, "last_seen": 1773825367, "location_type": 0}, "geometry": {"type": "Point", "coordinates": [-103.78715, 50.761063]}}, {"type": "Feature", "properties": {"sensor_index": 224705, "name": "St. Henry's Sr School", "pm25": 0.7, "pm25_a": 0.6, "pm25_b": 0.9, "last_seen": 1773825279, "location_type": 0}, "geometry": {"type": "Point", "coordinates": [-102.79673, 50.93659]}}, {"type": "Feature", "properties": {"sensor_index": 225117, "name": "Century Field YRHS", "pm25": 0.5, "pm25_a": 0.5, "pm25_b": 4251.9, "last_seen": 1773825266, "location_type": 0}, "geometry": {"type": "Point", "coordinates": [-102.478065, 51.215965]}}, {"type": "Feature", "properties": {"sensor_index": 226573, "name": "Mankota Public School", "pm25": 0.0, "pm25_a": 0.0, "pm25_b": 0.0, "last_seen": 1773825312, "location_type": 0}, "geometry": {"type": "Point", "coordinates": [-107.0674, 49.41989]}}, {"type": "Feature", "properties": {"sensor_index": 226635, "name": "Central Butte School", "pm25": 0.0, "pm25_a": 0.0, "pm25_b": 0.0, "last_seen": 1773825351, "location_type": 0}, "geometry": {"type": "Point", "coordinates": [-106.504524, 50.796543]}}, {"type": "Feature", "properties": {"sensor_index": 226639, "name": "Assiniboia Composite High School", "pm25": 0.1, "pm25_a": 0.2, "pm25_b": 0.0, "last_seen": 1773825338, "location_type": 0}, "geometry": {"type": "Point", "coordinates": [-105.99798, 49.62498]}}, {"type": "Feature", "properties": {"sensor_index": 227149, "name": "\u00c9cole Gravelbourg School", "pm25": 0.0, "pm25_a": 0.0, "pm25_b": 0.0, "last_seen": 1773825262, "location_type": 0}, "geometry": {"type": "Point", "coordinates": [-106.56045, 49.872833]}}, {"type": "Feature", "properties": {"sensor_index": 227165, "name": "Craik School", "pm25": 46.1, "pm25_a": 83.9, "pm25_b": 8.3, "last_seen": 1773825311, "location_type": 0}, "geometry": {"type": "Point", "coordinates": [-105.82357, 51.044815]}}, {"type": "Feature", "properties": {"sensor_index": 227173, "name": "Prairie South School Division Office", "pm25": 0.0, "pm25_a": 0.0, "pm25_b": 0.0, "last_seen": 1773825354, "location_type": 0}, "geometry": {"type": "Point", "coordinates": [-105.55701, 50.40043]}}, {"type": "Feature", "properties": {"sensor_index": 227183, "name": "Rouleau School", "pm25": 0.2, "pm25_a": 0.0, "pm25_b": 0.4, "last_seen": 1773825360, "location_type": 0}, "geometry": {"type": "Point", "coordinates": [-104.90163, 50.19128]}}, {"type": "Feature", "properties": {"sensor_index": 229353, "name": "Borden", "pm25": 7.3, "pm25_a": 12.1, "pm25_b": 2.5, "last_seen": 1773825369, "location_type": 0}, "geometry": {"type": "Point", "coordinates": [-107.23633, 52.403618]}}, {"type": "Feature", "properties": {"sensor_index": 229921, "name": "Cudworth", "pm25": 8.6, "pm25_a": 7.9, "pm25_b": 9.4, "last_seen": 1773825342, "location_type": 0}, "geometry": {"type": "Point", "coordinates": [-105.73341, 52.48632]}}, {"type": "Feature", "properties": {"sensor_index": 231289, "name": "AQSU-One Arrow", "pm25": 6.8, "pm25_a": 7.1, "pm25_b": 6.5, "last_seen": 1773825343, "location_type": 0}, "geometry": {"type": "Point", "coordinates": [-106.029366, 52.740547]}}, {"type": "Feature", "properties": {"sensor_index": 251803, "name": "Saskatchewan Polytechnic Moose Jaw Campus", "pm25": 0.0, "pm25_a": 0.0, "pm25_b": 0.0, "last_seen": 1773825321, "location_type": 0}, "geometry": {"type": "Point", "coordinates": [-105.551186, 50.40406]}}]}