{"type": "FeatureCollection", "features": [{"type": "Feature", "geometry": {"type": "Point", "coordinates": [-114.037677, 51.268227]}, "properties": {"stationName": "Airdrie", "Fine Particulate Matter": 6.4, "Nitric Oxide": 5.0, "Nitrogen Dioxide": 24.0, "Outdoor Temperature": 7.3, "Ozone": 4.0, "Relative Humidity": 85.0, "Total Oxides of Nitrogen": 29.0, "Wind Direction": 212.0, "Wind Speed": 3.2}}, {"type": "Feature", "geometry": {"type": "Point", "coordinates": [-111.038056, 56.448889]}, "properties": {"stationName": "Anzac", "Fine Particulate Matter": 1.7, "Nitric Oxide": 0.0, "Nitrogen Dioxide": 1.0, "Outdoor Temperature": 9.1, "Ozone": 32.0, "Relative Humidity": 63.7, "Sulphur Dioxide": 1.0, "Total Hydrocarbons": 2.03, "Total Oxides of Nitrogen": 1.0, "Total Reduced Sulphur": 0.0, "Wind Direction": 271.0, "Wind Speed": 18.3}}, {"type": "Feature", "geometry": {"type": "Point", "coordinates": [-113.144105, 53.554691]}, "properties": {"stationName": "Ardrossan", "Fine Particulate Matter": 1.2, "Hydrogen Sulphide": 0.0, "Nitric Oxide": 1.0, "Nitrogen Dioxide": 7.0, "Outdoor Temperature": 7.0, "Ozone": 21.0, "Sulphur Dioxide": 0.0, "Total Oxides of Nitrogen": 8.0, "Wind Direction": 217.0, "Wind Speed": 10.0}}, {"type": "Feature", "geometry": {"type": "Point", "coordinates": [-111.5996, 57.1982]}, "properties": {"stationName": "Barge Landing", "Outdoor Temperature": 5.2, "Relative Humidity": 94.1, "Sulphur Dioxide": 0.0, "Total Hydrocarbons": 2.05, "Total Reduced Sulphur": 0.0, "Wind Direction": 190.0, "Wind Speed": 6.2}}, {"type": "Feature", "geometry": {"type": "Point", "coordinates": [-119.3968, 55.1963]}, "properties": {"stationName": "Beaverlodge", "Fine Particulate Matter": 0.8, "Nitric Oxide": 0.0, "Nitrogen Dioxide": 5.0, "Outdoor Temperature": 5.6, "Ozone": 26.0, "Relative Humidity": 81.4, "Sulphur Dioxide": 0.0, "Total Oxides of Nitrogen": 5.0, "Wind Direction": 207.0, "Wind Speed": 8.9}}, {"type": "Feature", "geometry": {"type": "Point", "coordinates": [-113.224755, 53.610163]}, "properties": {"stationName": "Bremner", "Fine Particulate Matter": 3.6, "Hydrogen Sulphide": 0.0, "Nitric Oxide": 3.0, "Nitrogen Dioxide": 20.0, "Outdoor Temperature": 5.0, "Ozone": 11.0, "Relative Humidity": 69.5, "Sulphur Dioxide": 0.0, "Total Oxides of Nitrogen": 23.0, "Wind Direction": 216.0, "Wind Speed": 13.4}}, {"type": "Feature", "geometry": {"type": "Point", "coordinates": [-114.460556, 53.090278]}, "properties": {"stationName": "Breton", "Nitric Oxide": 2.0, "Nitrogen Dioxide": 5.0, "Outdoor Temperature": 3.2, "Ozone": 11.0, "Relative Humidity": 82.1, "Sulphur Dioxide": 0.0, "Total Oxides of Nitrogen": 7.0, "Wind Direction": 150.0, "Wind Speed": 3.7}}, {"type": "Feature", "geometry": {"type": "Point", "coordinates": [-112.089167, 56.779722]}, "properties": {"stationName": "Brion-MacKay River", "Hydrogen Sulphide": 0.0, "Nitric Oxide": 0.0, "Nitrogen Dioxide": 0.0, "Outdoor Temperature": 7.0, "Relative Humidity": 71.7, "Sulphur Dioxide": 0.0, "Total Hydrocarbons": 2.28, "Total Oxides of Nitrogen": 0.0, "Wind Direction": 249.0, "Wind Speed": 6.0}}, {"type": "Feature", "geometry": {"type": "Point", "coordinates": [-111.863769, 50.558969]}, "properties": {"stationName": "Brooks Meadowplace", "Fine Particulate Matter": 6.3, "Nitric Oxide": 15.0, "Nitrogen Dioxide": 14.0, "Outdoor Temperature": 6.6, "Ozone": 9.0, "Relative Humidity": 87.3, "Total Oxides of Nitrogen": 15.0, "Wind Direction": 269.0, "Wind Speed": 3.2}}, {"type": "Feature", "geometry": {"type": "Point", "coordinates": [-112.9278, 53.80012]}, "properties": {"stationName": "Bruderheim", "Fine Particulate Matter": 0.0, "Methane": 1.98, "Nitric Oxide": 0.0, "Nitrogen Dioxide": 3.0, "Non-methane Hydrocarbons": 0.01, "Outdoor Temperature": 8.0, "Ozone": 27.0, "Relative Humidity": 60.3, "Sulphur Dioxide": 2.0, "Total Hydrocarbons": 1.99, "Total Oxides of Nitrogen": 3.0, "Wind Direction": 230.0, "Wind Speed": 12.9}}, {"type": "Feature", "geometry": {"type": "Point", "coordinates": [-111.5926, 56.9967]}, "properties": {"stationName": "Buffalo Viewpoint", "Fine Particulate Matter": 1.3, "Hydrogen Sulphide": 0.0, "Outdoor Temperature": 8.4, "Relative Humidity": 69.0, "Sulphur Dioxide": 0.0, "Total Hydrocarbons": 2.03, "Wind Direction": 269.0, "Wind Speed": 13.9}}, {"type": "Feature", "geometry": {"type": "Point", "coordinates": [-114.008836, 51.030789]}, "properties": {"stationName": "Calgary Central Inglewood", "Carbon Monoxide": 0.69, "Fine Particulate Matter": 14.4, "Nitric Oxide": 21.0, "Nitrogen Dioxide": 35.0, "Outdoor Temperature": 8.0, "Ozone": 4.0, "Relative Humidity": 98.8, "Total Oxides of Nitrogen": 55.0, "Wind Direction": 128.0, "Wind Speed": 1.9}}, {"type": "Feature", "geometry": {"type": "Point", "coordinates": [-114.138994, 51.08272]}, "properties": {"stationName": "Calgary Varsity", "Fine Particulate Matter": 5.2, "Nitric Oxide": 0.0, "Nitrogen Dioxide": 16.0, "Outdoor Temperature": 9.7, "Ozone": 19.0, "Relative Humidity": 60.9, "Total Oxides of Nitrogen": 16.0, "Wind Direction": 90.0, "Wind Speed": 2.8}}, {"type": "Feature", "geometry": {"type": "Point", "coordinates": [-115.8691549, 53.6210616]}, "properties": {"stationName": "Carrot Creek", "Nitric Oxide": 0.0, "Nitrogen Dioxide": 3.0, "Outdoor Temperature": 2.9, "Ozone": 14.0, "Relative Humidity": 85.7, "Sulphur Dioxide": 0.0, "Total Oxides of Nitrogen": 3.0, "Wind Direction": 39.0, "Wind Speed": 2.2}}, {"type": "Feature", "geometry": {"type": "Point", "coordinates": [-114.512722, 51.205417]}, "properties": {"stationName": "Cochrane Sensor", "Fine Particulate Matter": 2.6, "Nitrogen Dioxide": 13.799999999999999, "Outdoor Temperature": 8.3, "Ozone": 25.7, "Relative Humidity": 78.0}}, {"type": "Feature", "geometry": {"type": "Point", "coordinates": [-110.2330575, 54.4138811]}, "properties": {"stationName": "Cold Lake South", "Fine Particulate Matter": 2.0, "Nitric Oxide": 0.0, "Nitrogen Dioxide": 6.0, "Outdoor Temperature": 5.1, "Ozone": 22.0, "Relative Humidity": 80.0, "Sulphur Dioxide": 0.0, "Total Hydrocarbons": 2.11, "Total Oxides of Nitrogen": 6.0, "Total Reduced Sulphur": 0.0, "Wind Direction": 247.0, "Wind Speed": 8.3}}, {"type": "Feature", "geometry": {"type": "Point", "coordinates": [-111.078872, 55.632331]}, "properties": {"stationName": "Conklin Community", "Fine Particulate Matter": 2.0, "Methane": 2.09, "Nitric Oxide": 0.0, "Nitrogen Dioxide": 0.0, "Non-methane Hydrocarbons": 0.0, "Outdoor Temperature": 5.7, "Ozone": 29.0, "Relative Humidity": 73.7, "Sulphur Dioxide": 0.0, "Total Hydrocarbons": 2.09, "Total Oxides of Nitrogen": 1.0, "Total Reduced Sulphur": 0.0, "Wind Direction": 229.0, "Wind Speed": 10.2}}, {"type": "Feature", "geometry": {"type": "Point", "coordinates": [-114.983408, 53.220056]}, "properties": {"stationName": "Drayton Valley", "Fine Particulate Matter": 5.5, "Nitric Oxide": 2.0, "Nitrogen Dioxide": 17.0, "Outdoor Temperature": 6.2, "Ozone": 13.0, "Relative Humidity": 71.3, "Sulphur Dioxide": 0.0, "Total Oxides of Nitrogen": 19.0, "Wind Direction": 188.0, "Wind Speed": 4.5}}, {"type": "Feature", "geometry": {"type": "Point", "coordinates": [-113.991415, 50.965546]}, "properties": {"stationName": "E-BAM ATCO", "Fine Particulate Matter": 4.2}}, {"type": "Feature", "geometry": {"type": "Point", "coordinates": [-113.9809, 50.95033]}, "properties": {"stationName": "E-BAM Deerfoot Casino", "Fine Particulate Matter": 0.0}}, {"type": "Feature", "geometry": {"type": "Point", "coordinates": [-113.9978611, 50.9724444]}, "properties": {"stationName": "E-BAM South Hill", "Fine Particulate Matter": 0.0}}, {"type": "Feature", "geometry": {"type": "Point", "coordinates": [-113.3680856, 53.5482115]}, "properties": {"stationName": "Edmonton East", "Carbon Monoxide": 0.2, "Fine Particulate Matter": 8.3, "Hydrogen Sulphide": 1.0, "Methane": 2.4, "Nitric Oxide": 21.0, "Nitrogen Dioxide": 27.0, "Non-methane Hydrocarbons": 0.0, "Outdoor Temperature": 6.7, "Ozone": 4.0, "Relative Humidity": 73.1, "Sulphur Dioxide": 0.0, "Total Hydrocarbons": 2.4, "Total Oxides of Nitrogen": 48.0, "Wind Direction": 194.0, "Wind Speed": 8.3}}, {"type": "Feature", "geometry": {"type": "Point", "coordinates": [-113.527, 53.4978]}, "properties": {"stationName": "Edmonton Lendrum", "Fine Particulate Matter": 2.8, "Nitric Oxide": 4.0, "Nitrogen Dioxide": 22.0, "Outdoor Temperature": 3.6, "Ozone": 2.0, "Relative Humidity": 89.8, "Sulphur Dioxide": 0.0, "Total Oxides of Nitrogen": 26.0, "Wind Direction": 25.0, "Wind Speed": 1.0}}, {"type": "Feature", "geometry": {"type": "Point", "coordinates": [-113.48593, 53.549509]}, "properties": {"stationName": "Edmonton McCauley", "Carbon Monoxide": 0.1, "Fine Particulate Matter": 4.5, "Nitric Oxide": 2.0, "Nitrogen Dioxide": 17.0, "Outdoor Temperature": 8.3, "Ozone": 12.0, "Relative Humidity": 52.4, "Total Oxides of Nitrogen": 19.0, "Wind Direction": 184.0, "Wind Speed": 5.4}}, {"type": "Feature", "geometry": {"type": "Point", "coordinates": [-113.39849, 53.56693]}, "properties": {"stationName": "Edmonton-Beverly", "Hydrogen Sulphide": 0.0, "Outdoor Temperature": 5.8, "Sulphur Dioxide": 0.0, "Total Hydrocarbons": 2.1, "Wind Direction": 205.0, "Wind Speed": 8.0}}, {"type": "Feature", "geometry": {"type": "Point", "coordinates": [-113.41473, 53.54925]}, "properties": {"stationName": "Edmonton-Gold Bar", "Hydrogen Sulphide": 0.0, "Nitric Oxide": 9.0, "Nitrogen Dioxide": 29.0, "Outdoor Temperature": 8.0, "Sulphur Dioxide": 0.0, "Total Oxides of Nitrogen": 38.0, "Wind Direction": 198.0, "Wind Speed": 8.0}}, {"type": "Feature", "geometry": {"type": "Point", "coordinates": [-116.392778, 53.593611]}, "properties": {"stationName": "Edson", "Fine Particulate Matter": 6.5, "Nitric Oxide": 14.0, "Nitrogen Dioxide": 15.0, "Outdoor Temperature": 2.5, "Ozone": 3.0, "Relative Humidity": 96.0, "Sulphur Dioxide": 0.0, "Total Oxides of Nitrogen": 29.0, "Wind Direction": 259.0, "Wind Speed": 4.4}}, {"type": "Feature", "geometry": {"type": "Point", "coordinates": [-112.8681, 53.6824]}, "properties": {"stationName": "Elk Island", "Fine Particulate Matter": 1.5, "Nitric Oxide": 0.0, "Nitrogen Dioxide": 2.0, "Outdoor Temperature": 6.4, "Ozone": 28.0, "Relative Humidity": 76.7, "Sulphur Dioxide": 0.0, "Total Oxides of Nitrogen": 2.0, "Wind Direction": 259.0, "Wind Speed": 1.5}}, {"type": "Feature", "geometry": {"type": "Point", "coordinates": [-111.722081, 57.24118]}, "properties": {"stationName": "Ells River", "Fine Particulate Matter": 0.9, "Methane": 2.03, "Nitric Oxide": 0.0, "Nitrogen Dioxide": 1.0, "Non-methane Hydrocarbons": 0.0, "Outdoor Temperature": 7.0, "Relative Humidity": 81.2, "Solar Radiation": 4.0, "Sulphur Dioxide": 0.0, "Total Hydrocarbons": 2.03, "Total Oxides of Nitrogen": 0.0, "Total Reduced Sulphur": 0.0, "Wind Direction": 225.0, "Wind Speed": 6.1}}, {"type": "Feature", "geometry": {"type": "Point", "coordinates": [-113.7607143, 53.4980544]}, "properties": {"stationName": "Enoch", "Fine Particulate Matter": 3.0, "Nitric Oxide": 2.0, "Nitrogen Dioxide": 9.0, "Outdoor Temperature": 4.4, "Ozone": 16.0, "Relative Humidity": 76.2, "Total Oxides of Nitrogen": 11.0, "Wind Direction": 218.0, "Wind Speed": 5.6}}, {"type": "Feature", "geometry": {"type": "Point", "coordinates": [-110.90004, 57.23732]}, "properties": {"stationName": "Firebag", "Hydrogen Sulphide": 0.0, "Nitric Oxide": 0.0, "Nitrogen Dioxide": 6.0, "Outdoor Temperature": 4.8, "Relative Humidity": 89.8, "Sulphur Dioxide": 2.0, "Total Hydrocarbons": 2.32, "Total Oxides of Nitrogen": 6.0, "Wind Direction": 234.0, "Wind Speed": 9.7}}, {"type": "Feature", "geometry": {"type": "Point", "coordinates": [-111.1764, 58.7084]}, "properties": {"stationName": "Fort Chipewyan", "Fine Particulate Matter": 1.3, "Nitric Oxide": 0.0, "Nitrogen Dioxide": 0.0, "Outdoor Temperature": 5.7, "Ozone": 26.0, "Relative Humidity": 92.1, "Solar Radiation": 6.0, "Sulphur Dioxide": 0.0, "Total Oxides of Nitrogen": 0.0, "Wind Direction": 264.0, "Wind Speed": 13.3}}, {"type": "Feature", "geometry": {"type": "Point", "coordinates": [-111.63969, 57.3489]}, "properties": {"stationName": "Fort Hills", "Fine Particulate Matter": 1.6, "Methane": 2.56, "Nitric Oxide": 4.0, "Nitrogen Dioxide": 16.0, "Non-methane Hydrocarbons": 0.0, "Outdoor Temperature": 7.0, "Relative Humidity": 84.9, "Sulphur Dioxide": 0.0, "Total Hydrocarbons": 2.56, "Total Oxides of Nitrogen": 20.0, "Total Reduced Sulphur": 0.0, "Wind Direction": 186.0, "Wind Speed": 8.2}}, {"type": "Feature", "geometry": {"type": "Point", "coordinates": [-111.640504, 57.189406]}, "properties": {"stationName": "Fort McKay", "Ammonia": 0.015, "Fine Particulate Matter": 1.1, "Hydrogen Sulphide": 0.0, "Methane": 2.05, "Nitric Oxide": 0.0, "Nitrogen Dioxide": 3.0, "Non-methane Hydrocarbons": 0.0, "Outdoor Temperature": 6.3, "Ozone": 16.0, "Relative Humidity": 89.6, "Solar Radiation": 6.0, "Sulphur Dioxide": 0.0, "Total Hydrocarbons": 2.05, "Total Oxides of Nitrogen": 3.0, "Total Reduced Sulphur": 0.0, "Wind Direction": 167.0, "Wind Speed": 4.2}}, {"type": "Feature", "geometry": {"type": "Point", "coordinates": [-111.6424, 57.1492]}, "properties": {"stationName": "Fort McKay South", "Fine Particulate Matter": 1.2, "Nitric Oxide": 0.0, "Nitrogen Dioxide": 8.0, "Outdoor Temperature": 7.1, "Ozone": 11.0, "Relative Humidity": 81.2, "Sulphur Dioxide": 0.0, "Total Hydrocarbons": 2.05, "Total Oxides of Nitrogen": 7.0, "Total Reduced Sulphur": 0.0, "Wind Direction": 218.0, "Wind Speed": 4.6}}, {"type": "Feature", "geometry": {"type": "Point", "coordinates": [-111.3902, 56.7328]}, "properties": {"stationName": "Fort McMurray Athabasca Valley", "Carbon Monoxide": 0.7, "Fine Particulate Matter": 3.2, "Nitric Oxide": 16.0, "Nitrogen Dioxide": 17.0, "Non-methane Hydrocarbons": 0.0, "Outdoor Temperature": 5.6, "Ozone": 2.0, "Relative Humidity": 89.1, "Sulphur Dioxide": 0.0, "Total Hydrocarbons": 2.2, "Total Oxides of Nitrogen": 33.0, "Total Reduced Sulphur": 0.0, "Wind Direction": 126.0, "Wind Speed": 6.5}}, {"type": "Feature", "geometry": {"type": "Point", "coordinates": [-111.476596, 56.751386]}, "properties": {"stationName": "Fort McMurray Patricia McInnes", "Ammonia": 0.002, "Fine Particulate Matter": 1.7, "Nitric Oxide": 0.0, "Nitrogen Dioxide": 2.0, "Outdoor Temperature": 6.3, "Ozone": 21.0, "Relative Humidity": 81.8, "Sulphur Dioxide": 0.0, "Total Hydrocarbons": 2.01, "Total Oxides of Nitrogen": 2.0, "Total Reduced Sulphur": 0.0, "Wind Direction": 210.0, "Wind Speed": 9.4}}, {"type": "Feature", "geometry": {"type": "Point", "coordinates": [-116.80948, 54.395492]}, "properties": {"stationName": "Fox Creek", "Fine Particulate Matter": 5.1, "Hydrogen Sulphide": 1.0, "Nitric Oxide": 39.0, "Nitrogen Dioxide": 18.0, "Outdoor Temperature": 4.7, "Ozone": 1.0, "Sulphur Dioxide": 1.0, "Total Oxides of Nitrogen": 58.0, "Wind Direction": 149.0, "Wind Speed": 2.3}}, {"type": "Feature", "geometry": {"type": "Point", "coordinates": [-114.200347, 53.306507]}, "properties": {"stationName": "Genesee", "Fine Particulate Matter": 5.2, "Nitric Oxide": 0.0, "Nitrogen Dioxide": 1.0, "Outdoor Temperature": 6.8, "Ozone": 22.0, "Relative Humidity": 80.1, "Sulphur Dioxide": 0.0, "Total Oxides of Nitrogen": 1.0, "Wind Direction": 230.0, "Wind Speed": 12.5}}, {"type": "Feature", "geometry": {"type": "Point", "coordinates": [-113.327174, 53.827241]}, "properties": {"stationName": "Gibbons", "Fine Particulate Matter": 2.3, "Hydrogen Sulphide": 0.6, "Nitric Oxide": 1.2, "Nitrogen Dioxide": 7.5, "Outdoor Temperature": 3.4, "Ozone": 14.5, "Relative Humidity": 91.3, "Sulphur Dioxide": 0.2, "Total Oxides of Nitrogen": 8.7, "Wind Direction": 210.0, "Wind Speed": 7.9}}, {"type": "Feature", "geometry": {"type": "Point", "coordinates": [-118.8077555, 55.1766364]}, "properties": {"stationName": "Grande Prairie - Henry Pirker", "Carbon Monoxide": 0.0, "Fine Particulate Matter": 1.1, "Hydrogen Sulphide": 0.0, "Nitric Oxide": 0.0, "Nitrogen Dioxide": 7.0, "Outdoor Temperature": 7.3, "Ozone": 26.0, "Relative Humidity": 67.9, "Sulphur Dioxide": 0.0, "Total Hydrocarbons": 2.0, "Total Oxides of Nitrogen": 7.0, "Wind Direction": 236.0, "Wind Speed": 3.1}}, {"type": "Feature", "geometry": {"type": "Point", "coordinates": [-117.604994, 56.18657]}, "properties": {"stationName": "Grimshaw", "Fine Particulate Matter": 1.7, "Methane": 2.0, "Nitric Oxide": 0.0, "Nitrogen Dioxide": 3.0, "Non-methane Hydrocarbons": 0.0, "Outdoor Temperature": 7.5, "Ozone": 31.0, "Relative Humidity": 66.0, "Sulphur Dioxide": 0.0, "Total Oxides of Nitrogen": 3.0, "Total Reduced Sulphur": 0.0, "Wind Direction": 289.0, "Wind Speed": 11.9}}, {"type": "Feature", "geometry": {"type": "Point", "coordinates": [-111.928226, 51.642351]}, "properties": {"stationName": "Hanna Library (Airpointer)", "Fine Particulate Matter": 1.1, "Nitric Oxide": 1.0, "Nitrogen Dioxide": 8.0, "Ozone": 18.0, "Relative Humidity": 74.5, "Total Oxides of Nitrogen": 9.0, "Wind Direction": 317.0, "Wind Speed": 0.7}}, {"type": "Feature", "geometry": {"type": "Point", "coordinates": [-119.086667, 55.752778]}, "properties": {"stationName": "Happy Valley", "Fine Particulate Matter": 0.6, "Methane": 2.13, "Nitric Oxide": 0.0, "Nitrogen Dioxide": 1.0, "Non-methane Hydrocarbons": 0.0, "Outdoor Temperature": 8.8, "Ozone": 36.0, "Sulphur Dioxide": 1.0, "Total Hydrocarbons": 2.14, "Total Oxides of Nitrogen": 1.0, "Total Reduced Sulphur": 0.0, "Wind Direction": 254.0, "Wind Speed": 22.0}}, {"type": "Feature", "geometry": {"type": "Point", "coordinates": [-117.162258, 58.512216]}, "properties": {"stationName": "High Level (Airpointer)", "Fine Particulate Matter": 0.5, "Nitric Oxide": 0.0, "Nitrogen Dioxide": 0.0, "Outdoor Temperature": 5.4, "Ozone": 29.0, "Relative Humidity": 76.0, "Total Oxides of Nitrogen": 0.0, "Wind Direction": 222.0, "Wind Speed": 4.0}}, {"type": "Feature", "geometry": {"type": "Point", "coordinates": [-117.544067, 53.4273011]}, "properties": {"stationName": "Hinton-Drinnan", "Fine Particulate Matter": 3.5, "Hydrogen Sulphide": 1.0, "Nitric Oxide": 36.0, "Nitrogen Dioxide": 8.0, "Outdoor Temperature": -1.2, "Ozone": 0.0, "Relative Humidity": 92.5, "Sulphur Dioxide": 0.0, "Total Oxides of Nitrogen": 44.0, "Total Reduced Sulphur": 1.0, "Wind Direction": 104.0, "Wind Speed": 1.3}}, {"type": "Feature", "geometry": {"type": "Point", "coordinates": [-117.5846086, 53.3927365]}, "properties": {"stationName": "Hinton-Hillcrest", "Fine Particulate Matter": 4.7, "Nitric Oxide": 4.0, "Nitrogen Dioxide": 19.0, "Outdoor Temperature": 4.1, "Ozone": 6.0, "Relative Humidity": 77.5, "Sulphur Dioxide": 0.0, "Total Oxides of Nitrogen": 24.0, "Total Reduced Sulphur": 3.0, "Wind Direction": 58.0, "Wind Speed": 3.0}}, {"type": "Feature", "geometry": {"type": "Point", "coordinates": [-111.44853, 55.87711]}, "properties": {"stationName": "Jackfish 1", "Hydrogen Sulphide": 0.0, "Nitric Oxide": 0.0, "Nitrogen Dioxide": 2.0, "Outdoor Temperature": 6.3, "Relative Humidity": 73.4, "Sulphur Dioxide": 1.0, "Total Oxides of Nitrogen": 2.0, "Wind Direction": 220.0, "Wind Speed": 4.8}}, {"type": "Feature", "geometry": {"type": "Point", "coordinates": [-110.9759926, 55.5186932]}, "properties": {"stationName": "Jackfish 2/3", "Hydrogen Sulphide": 0.0, "Nitric Oxide": 0.0, "Nitrogen Dioxide": 1.0, "Outdoor Temperature": 6.6, "Relative Humidity": 72.0, "Sulphur Dioxide": 1.0, "Total Oxides of Nitrogen": 1.0, "Wind Direction": 258.0, "Wind Speed": 13.2}}, {"type": "Feature", "geometry": {"type": "Point", "coordinates": [-110.7499, 55.9033]}, "properties": {"stationName": "Janvier", "Fine Particulate Matter": 5.3, "Methane": 2.01, "Nitric Oxide": 0.0, "Nitrogen Dioxide": 1.0, "Non-methane Hydrocarbons": 0.0, "Outdoor Temperature": 6.1, "Ozone": 28.0, "Relative Humidity": 74.4, "Sulphur Dioxide": 0.0, "Total Hydrocarbons": 2.01, "Total Oxides of Nitrogen": 0.0, "Total Reduced Sulphur": 0.0, "Wind Direction": 230.0, "Wind Speed": 13.6}}, {"type": "Feature", "geometry": {"type": "Point", "coordinates": [-118.09144, 52.873528]}, "properties": {"stationName": "Jasper", "Fine Particulate Matter": 5.6, "Nitric Oxide": 2.0, "Nitrogen Dioxide": 7.0, "Outdoor Temperature": 3.8, "Ozone": 5.0, "Relative Humidity": 94.0, "Total Oxides of Nitrogen": 9.0, "Wind Direction": 232.0, "Wind Speed": 6.4}}, {"type": "Feature", "geometry": {"type": "Point", "coordinates": [-111.218823, 55.461647]}, "properties": {"stationName": "Kirby North", "Hydrogen Sulphide": 0.0, "Nitric Oxide": 0.0, "Nitrogen Dioxide": 0.0, "Outdoor Temperature": 5.9, "Relative Humidity": 75.5, "Sulphur Dioxide": 1.0, "Total Hydrocarbons": 2.2, "Total Oxides of Nitrogen": 0.0, "Wind Direction": 225.0, "Wind Speed": 15.5}}, {"type": "Feature", "geometry": {"type": "Point", "coordinates": [-112.778004, 53.757334]}, "properties": {"stationName": "Lamont", "Fine Particulate Matter": 2.5, "Hydrogen Sulphide": 0.0, "Methane": 2.15, "Nitric Oxide": 1.0, "Nitrogen Dioxide": 8.0, "Non-methane Hydrocarbons": 0.0, "Outdoor Temperature": 7.0, "Ozone": 26.0, "Relative Humidity": 59.6, "Sulphur Dioxide": 3.0, "Total Hydrocarbons": 2.15, "Total Oxides of Nitrogen": 9.0, "Wind Direction": 245.0, "Wind Speed": 11.8}}, {"type": "Feature", "geometry": {"type": "Point", "coordinates": [-113.503769, 53.241439]}, "properties": {"stationName": "Leduc Sensor", "Fine Particulate Matter": 1.7, "Nitrogen Dioxide": 5.7, "Outdoor Temperature": 6.0, "Ozone": 25.0, "Relative Humidity": 77.0}}, {"type": "Feature", "geometry": {"type": "Point", "coordinates": [-112.800586, 49.7161843]}, "properties": {"stationName": "Lethbridge", "Ammonia": 0.0006, "Carbon Monoxide": 0.5, "Fine Particulate Matter": 5.4, "Hydrogen Sulphide": 1.3, "Methane": 2.2, "Nitric Oxide": 3.5, "Nitrogen Dioxide": 11.0, "Non-methane Hydrocarbons": 0.1, "Outdoor Temperature": 7.5, "Ozone": 15.4, "Relative Humidity": 77.0, "Sulphur Dioxide": 0.1, "Total Hydrocarbons": 2.3, "Total Oxides of Nitrogen": 14.5, "Wind Direction": 274.7, "Wind Speed": 4.2}}, {"type": "Feature", "geometry": {"type": "Point", "coordinates": [-111.5007492, 57.026869]}, "properties": {"stationName": "Lower Camp", "Hydrogen Sulphide": 0.0, "Outdoor Temperature": 7.9, "Relative Humidity": 78.6, "Sulphur Dioxide": 3.0, "Total Hydrocarbons": 2.07, "Wind Direction": 209.0, "Wind Speed": 2.2}}, {"type": "Feature", "geometry": {"type": "Point", "coordinates": [-111.482, 56.9688]}, "properties": {"stationName": "Mannix", "Hydrogen Sulphide": 0.0, "Outdoor Temperature": 7.2, "Relative Humidity": 78.7, "Sulphur Dioxide": 0.0, "Total Hydrocarbons": 2.0, "Wind Direction": 210.0, "Wind Speed": 4.3}}, {"type": "Feature", "geometry": {"type": "Point", "coordinates": [-114.6361, 53.5299999]}, "properties": {"stationName": "Meadows", "Nitric Oxide": 0.0, "Nitrogen Dioxide": 3.0, "Outdoor Temperature": 6.5, "Relative Humidity": 73.0, "Sulphur Dioxide": 0.0, "Total Oxides of Nitrogen": 3.0, "Wind Direction": 270.0, "Wind Speed": 9.6}}, {"type": "Feature", "geometry": {"type": "Point", "coordinates": [-110.6811172, 50.0488873]}, "properties": {"stationName": "Medicine Hat - Crescent Heights", "Carbon Monoxide": 0.173, "Fine Particulate Matter": 5.7, "Nitric Oxide": 0.0, "Nitrogen Dioxide": 8.0, "Outdoor Temperature": 6.4, "Ozone": 13.0, "Relative Humidity": 91.7, "Solar Radiation": 11.0, "Sulphur Dioxide": 0.0, "Total Hydrocarbons": 2.2, "Total Oxides of Nitrogen": 9.0, "Wind Direction": 214.0, "Wind Speed": 1.7}}, {"type": "Feature", "geometry": {"type": "Point", "coordinates": [-114.13214, 51.79354]}, "properties": {"stationName": "Olds Sensor", "Fine Particulate Matter": 3.3, "Nitrogen Dioxide": 14.1, "Outdoor Temperature": 8.2, "Ozone": 26.200000000000003, "Relative Humidity": 43.0}}, {"type": "Feature", "geometry": {"type": "Point", "coordinates": [-112.8433489, 54.9036817]}, "properties": {"stationName": "O\u2019Morrow Station 1", "Fine Particulate Matter": 1.3, "Outdoor Temperature": 4.8, "Relative Humidity": 72.9, "Sulphur Dioxide": 0.0, "Total Reduced Sulphur": 0.0, "Wind Direction": 234.0, "Wind Speed": 9.3}}, {"type": "Feature", "geometry": {"type": "Point", "coordinates": [-116.769283, 56.38257]}, "properties": {"stationName": "PRC", "Hydrogen Sulphide": 0.0, "Methane": 1.89, "Non-methane Hydrocarbons": 0.0, "Outdoor Temperature": 4.4, "Sulphur Dioxide": 0.0, "Total Hydrocarbons": 1.89, "Total Reduced Sulphur": 0.0, "Wind Direction": 246.0, "Wind Speed": 13.9}}, {"type": "Feature", "geometry": {"type": "Point", "coordinates": [-112.816501, 54.9457874]}, "properties": {"stationName": "Poacher\u2019s Landing Station 2", "Total Reduced Sulphur": 1.0, "Wind Direction": 223.0, "Wind Speed": 9.2}}, {"type": "Feature", "geometry": {"type": "Point", "coordinates": [-113.1259, 53.7524]}, "properties": {"stationName": "Range Road 220", "Ethylene": 0.01, "Methane": 2.33, "Nitric Oxide": 21.0, "Nitrogen Dioxide": 28.0, "Non-methane Hydrocarbons": 0.0, "Outdoor Temperature": -39.7, "Relative Humidity": 100.0, "Total Hydrocarbons": 2.33, "Total Oxides of Nitrogen": 48.0, "Wind Direction": 212.0, "Wind Speed": 14.1}}, {"type": "Feature", "geometry": {"type": "Point", "coordinates": [-112.64222, 49.46218]}, "properties": {"stationName": "Raymond (Airpointer)", "Fine Particulate Matter": 1.4, "Nitric Oxide": 0.0, "Nitrogen Dioxide": 4.0, "Outdoor Temperature": 2.7, "Ozone": 11.0, "Relative Humidity": 91.3, "Total Oxides of Nitrogen": 4.0, "Wind Direction": 96.0, "Wind Speed": 0.8}}, {"type": "Feature", "geometry": {"type": "Point", "coordinates": [-113.793438, 52.298622]}, "properties": {"stationName": "Red Deer - Riverside", "Carbon Monoxide": 0.37, "Fine Particulate Matter": 6.4, "Hydrogen Sulphide": 0.0, "Nitric Oxide": 6.0, "Nitrogen Dioxide": 15.0, "Non-methane Hydrocarbons": 0.0, "Outdoor Temperature": 6.4, "Ozone": 3.0, "Relative Humidity": 90.6, "Sulphur Dioxide": 0.0, "Total Hydrocarbons": 2.3, "Total Oxides of Nitrogen": 21.0, "Wind Direction": 175.0, "Wind Speed": 2.3}}, {"type": "Feature", "geometry": {"type": "Point", "coordinates": [-113.105857, 53.951834]}, "properties": {"stationName": "Redwater", "Barometric Pressure": 939.0, "Fine Particulate Matter": 3.191, "Hydrogen Sulphide": 0.0, "Nitric Oxide": 2.0, "Nitrogen Dioxide": 9.0, "Outdoor Temperature": 3.4, "Ozone": 16.0, "Relative Humidity": 77.2, "Sulphur Dioxide": 0.0, "Total Oxides of Nitrogen": 11.0, "Wind Direction": 219.0, "Wind Speed": 4.9}}, {"type": "Feature", "geometry": {"type": "Point", "coordinates": [-117.057, 55.87]}, "properties": {"stationName": "Reno - PRAMP", "Methane": 1.97, "Non-methane Hydrocarbons": 0.0, "Outdoor Temperature": 4.9, "Relative Humidity": 94.0, "Sulphur Dioxide": 0.0, "Total Hydrocarbons": 1.97, "Total Reduced Sulphur": 0.0, "Wind Direction": 167.0, "Wind Speed": 9.8}}, {"type": "Feature", "geometry": {"type": "Point", "coordinates": [-113.1999, 53.7162]}, "properties": {"stationName": "Ross Creek", "Ammonia": 0.0, "Barometric Pressure": 941.0, "Ethylene": 0.002, "Nitric Oxide": 2.0, "Nitrogen Dioxide": 17.0, "Outdoor Temperature": 5.0, "Relative Humidity": 89.2, "Solar Radiation": 12.0, "Sulphur Dioxide": 1.0, "Total Oxides of Nitrogen": 18.0, "Wind Direction": 195.0, "Wind Speed": 5.5}}, {"type": "Feature", "geometry": {"type": "Point", "coordinates": [-113.9824722, 50.9551388]}, "properties": {"stationName": "SAML Barlow Solar Park", "Fine Particulate Matter": 7.9, "Nitric Oxide": 10.8, "Nitrogen Dioxide": 21.0, "Outdoor Temperature": 8.4, "Ozone": 14.4, "Relative Humidity": 67.0, "Sulphur Dioxide": 0.0, "Total Oxides of Nitrogen": 31.8, "Total Reduced Sulphur": 0.7, "Wind Direction": 117.7, "Wind Speed": 0.4}}, {"type": "Feature", "geometry": {"type": "Point", "coordinates": [-113.027247, 53.759684]}, "properties": {"stationName": "Scotford South", "Barometric Pressure": 939.0, "Benzene": 0.054, "Ethylbenzene": 0.0, "Hydrogen Sulphide": 0.4, "Nitric Oxide": 0.0, "Nitrogen Dioxide": 4.0, "Outdoor Temperature": 4.1, "Relative Humidity": 69.7, "Styrene": 0.0, "Sulphur Dioxide": 0.0, "Toluene": 0.385, "Total Oxides of Nitrogen": 3.0, "Wind Direction": 215.0, "Wind Speed": 11.4, "Xylene": 0.103}}, {"type": "Feature", "geometry": {"type": "Point", "coordinates": [-113.32098, 53.53209]}, "properties": {"stationName": "Sherwood Park", "Fine Particulate Matter": 2.9, "Hydrogen Sulphide": 0.0, "Nitric Oxide": 3.0, "Nitrogen Dioxide": 22.0, "Outdoor Temperature": 7.0, "Ozone": 8.0, "Sulphur Dioxide": 0.0, "Total Hydrocarbons": 2.27, "Total Oxides of Nitrogen": 25.0, "Wind Direction": 188.0, "Wind Speed": 6.0}}, {"type": "Feature", "geometry": {"type": "Point", "coordinates": [-118.275, 55.405]}, "properties": {"stationName": "Smoky Heights", "Fine Particulate Matter": 1.1, "Outdoor Temperature": 6.0, "Sulphur Dioxide": 1.0, "Total Reduced Sulphur": 1.0, "Wind Direction": 248.0, "Wind Speed": 16.3}}, {"type": "Feature", "geometry": {"type": "Point", "coordinates": [-113.237639, 53.682364]}, "properties": {"stationName": "Southfort", "Carbon Monoxide": 0.25, "Fine Particulate Matter": 3.8, "Hydrogen Sulphide": 0.0, "Methane": 2.32, "Nitric Oxide": 2.0, "Nitrogen Dioxide": 17.0, "Non-methane Hydrocarbons": 0.0, "Outdoor Temperature": 7.1, "Ozone": 10.0, "Relative Humidity": 73.7, "Sulphur Dioxide": 1.0, "Total Hydrocarbons": 2.32, "Total Oxides of Nitrogen": 19.0, "Wind Direction": 218.9, "Wind Speed": 11.8}}, {"type": "Feature", "geometry": {"type": "Point", "coordinates": [-113.6119166, 53.6269722]}, "properties": {"stationName": "St. Albert", "Fine Particulate Matter": 2.8, "Nitric Oxide": 1.0, "Nitrogen Dioxide": 19.0, "Outdoor Temperature": 6.0, "Ozone": 10.0, "Relative Humidity": 80.6, "Sulphur Dioxide": 0.0, "Total Oxides of Nitrogen": 20.0, "Wind Direction": 219.0, "Wind Speed": 5.9}}, {"type": "Feature", "geometry": {"type": "Point", "coordinates": [-111.5026, 54.2165]}, "properties": {"stationName": "St. Lina", "Fine Particulate Matter": 1.8, "Hydrogen Sulphide": 0.0, "Nitric Oxide": 0.0, "Nitrogen Dioxide": 1.0, "Outdoor Temperature": 6.0, "Ozone": 31.0, "Relative Humidity": 65.0, "Sulphur Dioxide": 0.0, "Total Hydrocarbons": 2.07, "Total Oxides of Nitrogen": 1.0, "Wind Direction": 262.0, "Wind Speed": 10.2}}, {"type": "Feature", "geometry": {"type": "Point", "coordinates": [-117.091111, 53.1325]}, "properties": {"stationName": "Steeper", "Carbon Monoxide": 0.1, "Fine Particulate Matter": 1.0, "Nitric Oxide": 0.0, "Nitrogen Dioxide": 0.0, "Outdoor Temperature": 8.8, "Ozone": 38.0, "Relative Humidity": 43.4, "Sulphur Dioxide": 0.0, "Total Oxides of Nitrogen": 0.0, "Wind Direction": 308.0, "Wind Speed": 2.4}}, {"type": "Feature", "geometry": {"type": "Point", "coordinates": [-111.17269, 55.62141]}, "properties": {"stationName": "Stony Mountain", "Fine Particulate Matter": 0.9, "Methane": 2.1, "Nitric Oxide": 0.0, "Nitrogen Dioxide": 0.0, "Non-methane Hydrocarbons": 0.0, "Outdoor Temperature": 7.6, "Ozone": 34.0, "Relative Humidity": 64.8, "Solar Radiation": 4.0, "Sulphur Dioxide": 0.0, "Total Hydrocarbons": 2.1, "Total Oxides of Nitrogen": 0.0, "Total Reduced Sulphur": 0.0, "Wind Direction": 257.0, "Wind Speed": 16.2}}, {"type": "Feature", "geometry": {"type": "Point", "coordinates": [-110.9091168, 56.2124673]}, "properties": {"stationName": "Surmont 2", "Fine Particulate Matter": 1.9, "Hydrogen Sulphide": 0.0, "Nitric Oxide": 0.0, "Nitrogen Dioxide": 1.0, "Outdoor Temperature": 5.4, "Relative Humidity": 76.2, "Sulphur Dioxide": 0.0, "Total Hydrocarbons": 1.98, "Total Oxides of Nitrogen": 1.0, "Wind Direction": 315.0, "Wind Speed": 3.7}}, {"type": "Feature", "geometry": {"type": "Point", "coordinates": [-110.452637, 54.604935]}, "properties": {"stationName": "Tamarack", "Fine Particulate Matter": 2.8, "Hydrogen Sulphide": 0.0, "Methane": 2.02, "Nitric Oxide": 0.0, "Nitrogen Dioxide": 3.0, "Non-methane Hydrocarbons": 0.0, "Outdoor Temperature": 7.0, "Ozone": 30.0, "Relative Humidity": 61.0, "Sulphur Dioxide": 0.0, "Total Hydrocarbons": 2.02, "Total Oxides of Nitrogen": 3.0, "Wind Direction": 247.0, "Wind Speed": 6.5}}, {"type": "Feature", "geometry": {"type": "Point", "coordinates": [-116.9815, 56.27408]}, "properties": {"stationName": "Three Creeks 842", "Methane": 2.02, "Non-methane Hydrocarbons": 0.0, "Outdoor Temperature": 5.9, "Relative Humidity": 77.0, "Sulphur Dioxide": 0.0, "Total Hydrocarbons": 2.02, "Total Reduced Sulphur": 0.0, "Wind Direction": 222.0, "Wind Speed": 12.0}}, {"type": "Feature", "geometry": {"type": "Point", "coordinates": [-116.9406, 56.37603]}, "properties": {"stationName": "Three Creeks 986", "Methane": 1.96, "Non-methane Hydrocarbons": 0.0, "Outdoor Temperature": 4.7, "Relative Humidity": 80.0, "Sulphur Dioxide": 0.0, "Total Hydrocarbons": 1.96, "Total Reduced Sulphur": 0.0, "Wind Direction": 215.0, "Wind Speed": 13.2}}, {"type": "Feature", "geometry": {"type": "Point", "coordinates": [-114.380556, 53.429444]}, "properties": {"stationName": "Wagner2", "Nitric Oxide": 0.0, "Nitrogen Dioxide": 2.0, "Outdoor Temperature": 1.8, "Relative Humidity": 98.4, "Sulphur Dioxide": 0.0, "Total Oxides of Nitrogen": 2.0, "Wind Direction": 308.0, "Wind Speed": 0.8}}, {"type": "Feature", "geometry": {"type": "Point", "coordinates": [-111.0385833, 57.2591972]}, "properties": {"stationName": "Wapasu", "Fine Particulate Matter": 4.8, "Hydrogen Sulphide": 0.0, "Nitric Oxide": 0.0, "Nitrogen Dioxide": 6.0, "Outdoor Temperature": 5.2, "Ozone": 11.0, "Relative Humidity": 93.0, "Sulphur Dioxide": 2.0, "Total Hydrocarbons": 1.97, "Total Oxides of Nitrogen": 6.0, "Wind Direction": 201.0, "Wind Speed": 6.3}}, {"type": "Feature", "geometry": {"type": "Point", "coordinates": [-111.6395, 57.1837]}, "properties": {"stationName": "Waskow ohci Pimatisiwin", "Hydrogen Sulphide": 0.0, "Outdoor Temperature": 6.3, "Relative Humidity": 89.0, "Sulphur Dioxide": 0.0, "Wind Direction": 148.0, "Wind Speed": 2.9}}, {"type": "Feature", "geometry": {"type": "Point", "coordinates": [-113.562583, 53.564411]}, "properties": {"stationName": "Woodcroft", "Fine Particulate Matter": 1.7, "Nitric Oxide": 4.0, "Nitrogen Dioxide": 19.0, "Outdoor Temperature": 4.8, "Ozone": 6.0, "Relative Humidity": 76.4, "Sulphur Dioxide": 0.0, "Total Oxides of Nitrogen": 23.0, "Wind Direction": 189.0, "Wind Speed": 4.4}}]}